id,Name,Phone,Link,Address,Pincode,Latitude,Longitude,Type,Visited,Blacklisted
332,Begin With Us Tea Time Cafe, Private Data,https://www.justdial.com/Bangalore/Begin-With-Us-Tea-Time-Cafe/080PXX80-XX80-180630221642-T8E3_BZDET?xid=QmFuZ2Fsb3JlIEhzciBMYXlvdXQgS29yYW1hbmdhbGE=, Private Data,365361,12.295,76.64,Cafe,0,0
54032,Leba super market, Private Data,, Private Data,,12.7148366,77.8410162,Super Market,0,0
1428,"AVIGNA ENTERPRISES(ATTIBELE),", Private Data,, Private Data,,12.7815259,77.7714241,Super Market,0,0
421,Hi Q Cafe, Private Data,https://www.justdial.com/Bangalore/Hi-Q-Cafe-Attibele/080PXX80-XX80-200207200107-N9I5_BZDET?xid=QmFuZ2Fsb3JlIENvZmZlZSBTaG9wcyBTYXJqYXB1cmE=, Private Data,562107,12.78284422,77.75644128,Cafe,0,0
437,Ashwini Tiffin Cafe, Private Data,https://www.justdial.com/Bangalore/Ashwini-Tiffin-Cafe-Attibele/080PXX80-XX80-200702005114-X6F2_BZDET?xid=QmFuZ2Fsb3JlIENvZmZlZSBTaG9wcyBTYXJqYXB1cmE=, Private Data,562107,12.78284422,77.75644128,Cafe,0,0
440,Hi Q Cafe, Private Data,https://www.justdial.com/Bangalore/Hi-Q-Cafe-Near-By-Lakshmi-Medicals-Attibele/080PXX80-XX80-190525195209-B5Y1_BZDET?xid=QmFuZ2Fsb3JlIENvZmZlZSBTaG9wcyBTYXJqYXB1cmE=, Private Data,562107,12.78284422,77.75644128,Cafe,0,0
465,ABCD - Anybody Can Dine, Private Data,https://www.justdial.com/Bangalore/ABCD-Anybody-Can-Dine-Attibele/080PXX80-XX80-170524140221-G4F9_BZDET?xid=QmFuZ2Fsb3JlIENvZmZlZSBTaG9wcyBTYXJqYXB1cmE=, Private Data,562107,12.78284422,77.75644128,Cafe,0,0
478,Amman Cafe Center & Bakery, Private Data,https://www.justdial.com/Bangalore/Amman-Cafe-Center-Bakery-Attibele/080PXX80-XX80-170928161136-W2N1_BZDET?xid=QmFuZ2Fsb3JlIENvZmZlZSBTaG9wcyBTYXJqYXB1cmE=, Private Data,562107,12.78284422,77.75644128,Cafe,0,0
483,Bangalore Cafe, Private Data,https://www.justdial.com/Bangalore/Bangalore-Cafe-Attibele/080PXX80-XX80-180205213454-D7H5_BZDET?xid=QmFuZ2Fsb3JlIENvZmZlZSBTaG9wcyBTYXJqYXB1cmE=, Private Data,562107,12.78284422,77.75644128,Cafe,0,0
489,Sanf Beli Coffee, Private Data,https://www.justdial.com/Bangalore/Sanf-Beli-Coffee-Near-Hotel-Guest-Line-Attibele/080PK002580_BZDET?xid=QmFuZ2Fsb3JlIENvZmZlZSBTaG9wcyBTYXJqYXB1cmE=, Private Data,562107,12.78284422,77.75644128,Cafe,0,0
496,Cuppa, Private Data,https://www.justdial.com/Bangalore/Cuppa-Beside-R-K-Garden-Family-Restaurant-La-Classic-Hotel-Near-Check-Post-Yadavanahalli/080PXX80-XX80-160305144532-Y2X5_BZDET?xid=QmFuZ2Fsb3JlIENvZmZlZSBTaG9wcyBTYXJqYXB1cmE=, Private Data,562107,12.78284422,77.75644128,Cafe,0,0
497,Bollywood Grill, Private Data,https://www.justdial.com/Bangalore/Bollywood-Grill-Oppiste-to-Applicomp-India-Limited-Attibele/080PXX80-XX80-150517132744-P4U9_BZDET?xid=QmFuZ2Fsb3JlIENvZmZlZSBTaG9wcyBTYXJqYXB1cmE=, Private Data,562107,12.78284422,77.75644128,Cafe,0,0
523,Daas Cafe, Private Data,https://www.justdial.com/Bangalore/Daas-Cafe-Balagaranahalli/080PXX80-XX80-180626220219-L6F8_BZDET?xid=QmFuZ2Fsb3JlIENvZmZlZSBTaG9wcyBTYXJqYXB1cmE=, Private Data,562107,12.78284422,77.75644128,Cafe,0,0
540,24 Hours Coffee Drop - La C.., Private Data,https://www.justdial.com/Bangalore/24-Hours-Coffee-Drop-La-Classic-Near-Electronic-City-Attibele-Industrial-Area/080PXX80-XX80-161012113420-P1G4_BZDET?xid=QmFuZ2Fsb3JlIENvZmZlZSBTaG9wcyBTYXJqYXB1cmE=, Private Data,562107,12.78284422,77.75644128,Cafe,0,0
661,Victory Grand The Spa Beau.., Private Data,https://www.justdial.com/Bangalore/Victory-Grand-The-Spa-Beauty-Parlour-Corporation-Bank-Building-Attibele/080PXX80-XX80-171007180156-E6T2_BZDET?xid=QmFuZ2Fsb3JlIFNhbG9ucw==, Private Data,562107,12.78284422,77.75644128,Salon,0,0
888,Natural ARTS, Private Data,https://www.justdial.com/Bangalore/Natural-ARTS-Near-Athithi-Grand-Attibele/080PXX80-XX80-170310184415-N2L4_BZDET?xid=QmFuZ2Fsb3JlIFNhbG9ucyBTYXJqYXB1cmE=, Private Data,562107,12.78284422,77.75644128,Salon,0,0
1134,Trendz Mens Beauty Saloon, Private Data,https://www.justdial.com/Bangalore/Trendz-Mens-Beauty-Saloon-Opp-Celebrity-Square-Apartment-Bidaraguppe/080PXX80-XX80-180301132536-E5Z1_BZDET?xid=QmFuZ2Fsb3JlIFNhbG9ucyBTYXJqYXB1cmE=, Private Data,562107,12.78284422,77.75644128,Salon,0,0
1135,Bubbles, Private Data,https://www.justdial.com/Bangalore/Bubbles-Near-NR-Hospital-Attibele/080PXX80-XX80-191213162734-B5Z3_BZDET?xid=QmFuZ2Fsb3JlIFNhbG9ucyBTYXJqYXB1cmE=, Private Data,562107,12.78284422,77.75644128,Salon,0,0
1139,Victory Grand The Spa Beau.., Private Data,https://www.justdial.com/Bangalore/Victory-Grand-The-Spa-Beauty-Parlour-Corporation-Bank-Building-Attibele/080PXX80-XX80-171007180156-E6T2_BZDET?xid=QmFuZ2Fsb3JlIFNhbG9ucyBTYXJqYXB1cmE=, Private Data,562107,12.78284422,77.75644128,Salon,0,0
1145,Abbinaya Beauty Parlour, Private Data,https://www.justdial.com/Bangalore/Abbinaya-Beauty-Parlour-Near-Bye-Udupi-Hotel-Attibele/080PXX80-XX80-190123183959-J7A5_BZDET?xid=QmFuZ2Fsb3JlIFNhbG9ucyBTYXJqYXB1cmE=, Private Data,562107,12.78284422,77.75644128,Salon,0,0
1147,The Gleeful, Private Data,https://www.justdial.com/Bangalore/The-Gleeful-Inside-Hotel-La-Classic-Yadavanahalli/080PXX80-XX80-170809104530-L8M4_BZDET?xid=QmFuZ2Fsb3JlIFNhbG9ucyBTYXJqYXB1cmE=, Private Data,562107,12.78284422,77.75644128,Salon,0,0
1150,Classic Mens Parlour, Private Data,https://www.justdial.com/Bangalore/Classic-Mens-Parlour-Opp-Bridge-Attibele/080PXX80-XX80-180307212926-T7M9_BZDET?xid=QmFuZ2Fsb3JlIFNhbG9ucyBTYXJqYXB1cmE=, Private Data,562107,12.78284422,77.75644128,Salon,0,0
1151,Sri Someshwara Swamy Mens P.., Private Data,https://www.justdial.com/Bangalore/Sri-Someshwara-Swamy-Mens-Parlour-Near-Ashok-Leyland-Neralur/080PXX80-XX80-190419100254-X8K2_BZDET?xid=QmFuZ2Fsb3JlIFNhbG9ucyBTYXJqYXB1cmE=, Private Data,562107,12.78284422,77.75644128,Salon,0,0
1158,Star Lines Mens Saloon, Private Data,https://www.justdial.com/Bangalore/Star-Lines-Mens-Saloon-Bidaraguppe/080PXX80-XX80-170602172507-H2T7_BZDET?xid=QmFuZ2Fsb3JlIFNhbG9ucyBTYXJqYXB1cmE=, Private Data,562107,12.78284422,77.75644128,Salon,0,0
1159,Nimisha Beauty Parlour, Private Data,https://www.justdial.com/Bangalore/Nimisha-Beauty-Parlour-Opp-keb-office-Attibele/080PXX80-XX80-160322141735-V2B9_BZDET?xid=QmFuZ2Fsb3JlIFNhbG9ucyBTYXJqYXB1cmE=, Private Data,562107,12.78284422,77.75644128,Salon,0,0
1164,Naturals Attibele Or Natura.., Private Data,https://www.justdial.com/Bangalore/Naturals-Attibele-Or-Naturals-Unisex-Salon-Spa-Near-Suzuki-Showroom-Attibele/080PXX80-XX80-200522183724-E8T3_BZDET?xid=QmFuZ2Fsb3JlIFNhbG9ucyBTYXJqYXB1cmE=, Private Data,562107,12.78284422,77.75644128,Salon,0,0
1166,Olympic Gents Parlour, Private Data,https://www.justdial.com/Bangalore/Olympic-Gents-Parlour-Attibele/080PXX80-XX80-190411140919-I8Y3_BZDET?xid=QmFuZ2Fsb3JlIFNhbG9ucyBTYXJqYXB1cmE=, Private Data,562107,12.78284422,77.75644128,Salon,0,0
1167,Jagadish Hair Salon, Private Data,https://www.justdial.com/Bangalore/Jagadish-Hair-Salon-Bus-Stop-Bidaraguppe/080PXX80-XX80-170601230827-A7L9_BZDET?xid=QmFuZ2Fsb3JlIFNhbG9ucyBTYXJqYXB1cmE=, Private Data,562107,12.78284422,77.75644128,Salon,0,0
1386,Treasure Tots Montessori Sc.., Private Data,https://www.justdial.com/Bangalore/Treasure-Tots-Montessori-School-Near-Indlabele-Bus-Stop-Attibele/080PXX80-XX80-190509113545-Z7U2_BZDET?xid=QmFuZ2Fsb3JlIFlvZ2EgQ2xhc3NlcyBTYXJqYXB1cmE=, Private Data,562107,12.78284422,77.75644128,Yoga,0,0
1454,"FAMILY BIG MART HYPER MARKET,", Private Data,, Private Data,,12.7845285,77.7728652,Super Market,0,0
47655,LIG I, Private Data,https://housing.com/in/buy/projects/page/162560-lig-i-by-reputed-builder-in-bommasandra, Private Data,,12.789185,77.702264,Housing Society,0,0
47702,KHB Township, Private Data,https://housing.com/in/buy/projects/page/149608-khb-township-by-reputed-builder-in-bommasandra, Private Data,,12.79068565,77.70008087,Housing Society,0,0
47646,3 BHK Apartment, Private Data,https://housing.com/in/buy/resale/page/216593-3-bhk-apartment-in-suryanagar-for-rs-5000000, Private Data,,12.790866,77.699313,Housing Society,0,0
47633,Century 22 Kabini, Private Data,https://housing.com/in/buy/projects/page/32891-century-22-kabini-by-century22-in-bommasandra, Private Data,,12.79094,77.697597,Housing Society,0,0
628,Anand Salon & Spa, Private Data,https://www.justdial.com/Bangalore/Anand-Salon-Spa-Near-Apc-Circle-Jigani/080PXX80-XX80-171116145838-P7B8_BZDET?xid=QmFuZ2Fsb3JlIFNhbG9ucw==, Private Data,560105,12.79108393,77.63550667,Salon,0,0
47638,Aashrithaa Vivanta Residence, Private Data,https://housing.com/in/buy/projects/page/79352-aashrithaa-vivanta-residence-by-aashritha-properties-pvt-ltd-in-iggalur, Private Data,,12.79110718,77.70326233,Housing Society,0,0
47676,2 BHK Villa, Private Data,https://housing.com/in/buy/resale/page/4819562-2-bhk-villa-in-bommasandra-for-rs-3960000, Private Data,,12.792635,77.699132,Housing Society,0,0
47624,Nisarga Sarovara, Private Data,https://housing.com/in/buy/projects/page/44793-nisarga-sarovara-by-nisarga-group-in-bommasandra, Private Data,,12.79271221,77.69314575,Housing Society,0,0
47668,MDS Sai Sowparnika, Private Data,https://housing.com/in/buy/projects/page/100054-mds-sai-sowparnika-by-mds-projects-in-bommasandra, Private Data,,12.79325008,77.69468689,Housing Society,0,0
48087,Nigama SVD Garden, Private Data,https://housing.com/in/buy/projects/page/205803-nigama-svd-garden-by-nigama-properties-in-chandapura, Private Data,,12.79342842,77.7067337,Housing Society,0,0
47601,3 BHK Independent House, Private Data,https://housing.com/in/buy/resale/page/3589084-3-bhk-independent-house-in-bommasandra-for-rs-9000000, Private Data,,12.794424,77.702282,Housing Society,0,0
47598,Residential Plot, Private Data,https://housing.com/in/buy/resale/page/4939250-residential-plot-in-bommasandra-for-rs-2460000, Private Data,,12.794811,77.700205,Housing Society,0,0
47653,Synergyone Woods Ville, Private Data,https://housing.com/in/buy/projects/page/218951-synergyone-woods-ville-by-synergyone-in-iggalur, Private Data,,12.79492569,77.70578003,Housing Society,0,0
47627,KHB Surya City, Private Data,https://housing.com/in/buy/projects/page/136841-khb-surya-city-by-reputed-builder-in-bommasandra, Private Data,,12.795008,77.700919,Housing Society,0,0
48073,ESCON Elite Garden, Private Data,https://housing.com/in/buy/projects/page/220888-escon-elite-garden-by-escon-developers-in-chandapura, Private Data,,12.79526329,77.70671082,Housing Society,0,0
47597,Golden Golden Era Samrudhi Homes, Private Data,https://housing.com/in/buy/projects/page/74305-golden-golden-era-samrudhi-homes-by-golden-era-property-in-bommasandra, Private Data,,12.7955637,77.70378876,Housing Society,0,0
480,Cafe Kalifo, Private Data,https://www.justdial.com/Bangalore/Cafe-Kalifo/080PXX80-XX80-190716221856-J6I9_BZDET?xid=QmFuZ2Fsb3JlIENvZmZlZSBTaG9wcyBTYXJqYXB1cmE=, Private Data,560081,12.7956429,77.70682255,Cafe,0,0
643,Crown Spa and Health Care, Private Data,https://www.justdial.com/Bangalore/Crown-Spa-and-Health-Care-Near-Keerthana-International-Hotel-Chandapura/080PXX80-XX80-171027100606-M8W6_BZDET?xid=QmFuZ2Fsb3JlIFNhbG9ucw==, Private Data,560081,12.7956429,77.70682255,Salon,0,0
810,Naturals Unisex Salon & Spa, Private Data,https://www.justdial.com/Bangalore/Naturals-Unisex-Salon-Spa-Opposite-to-Big-Market-Chandapura/080PXX80-XX80-170113004149-C3D4_BZDET?xid=QmFuZ2Fsb3JlIFNhbG9ucyBTYXJqYXB1cmE=, Private Data,560081,12.7956429,77.70682255,Salon,0,0
1110,Crown Spa and Health Care, Private Data,https://www.justdial.com/Bangalore/Crown-Spa-and-Health-Care-Near-Keerthana-International-Hotel-Chandapura/080PXX80-XX80-171027100606-M8W6_BZDET?xid=QmFuZ2Fsb3JlIFNhbG9ucyBTYXJqYXB1cmE=, Private Data,560081,12.7956429,77.70682255,Salon,0,0
47615,PNR Kapilavastu, Private Data,https://housing.com/in/buy/projects/page/91139-pnr-kapilavastu-by-pnr-infra-india-pvt-ltd-in-bommasandra, Private Data,,12.79615784,77.68862915,Housing Society,0,0
47611,2 BHK Apartment, Private Data,https://housing.com/in/buy/resale/page/5140187-2-bhk-apartment-in-bommasandra-for-rs-3500000, Private Data,,12.796338,77.700945,Housing Society,0,0
47669,4 BHK Villa, Private Data,https://housing.com/in/buy/resale/page/4412065-4-bhk-villa-in-bommasandra-for-rs-10230000, Private Data,,12.79637,77.703024,Housing Society,0,0
47691,Sarada Casa Estrella, Private Data,https://housing.com/in/buy/projects/page/37438-sarada-casa-estrella-by-ma-sarada-constructions-in-bommasandra, Private Data,,12.79643154,77.68638611,Housing Society,0,0
1576,"MBT TRADERS,", Private Data,, Private Data,,12.7966277,77.7063427,Super Market,0,0
48094,Vintage Vintage Gardenia, Private Data,https://housing.com/in/buy/projects/page/58641-vintage-vintage-gardenia-by-vintage-shelters-in-chandapura, Private Data,,12.79671955,77.70700073,Housing Society,0,0
47629,2 BHK Independent Floor, Private Data,https://housing.com/in/buy/resale/page/4066660-2-bhk-independent-floor-in-bommasandra-for-rs-2640000, Private Data,,12.796824,77.706024,Housing Society,0,0
47640,Residential Plot, Private Data,https://housing.com/in/buy/resale/page/4463467-residential-plot-in-bommasandra-for-rs-600000, Private Data,,12.796824,77.706024,Housing Society,0,0
48089,GR Excel Prime, Private Data,https://housing.com/in/buy/projects/page/146985-gr-excel-prime-by-gr-excel-prime-properties-in-chandapura, Private Data,,12.79709816,77.71109009,Housing Society,0,0
47626,Leland Orchid, Private Data,https://housing.com/in/buy/projects/page/99833-leland-orchid-by-leland-holding-pvt-ltd-in-bommasandra, Private Data,,12.79719639,77.7047348,Housing Society,0,0
48085,Dreamz Savinaya, Private Data,https://housing.com/in/buy/projects/page/67934-dreamz-savinaya-by-dreamz-infra-india-in-chandapura, Private Data,,12.79726791,77.7098465,Housing Society,0,0
48072,3 BHK Villa, Private Data,https://housing.com/in/buy/resale/page/4327584-3-bhk-villa-in-chandapura-for-rs-8562300, Private Data,,12.797337,77.711492,Housing Society,0,0
47672,4 BHK Villa, Private Data,https://housing.com/in/buy/resale/page/4399091-4-bhk-villa-in-bommasandra-for-rs-11230000, Private Data,,12.797375,77.697188,Housing Society,0,0
48105,Ashni Bhavan, Private Data,https://housing.com/in/buy/projects/page/138356-ashni-bhavan-by-reputed-builder-in-chandapura, Private Data,,12.797432,77.70784,Housing Society,0,0
48101,ESCON Surya Enclave, Private Data,https://housing.com/in/buy/projects/page/220890-escon-surya-enclave-by-escon-developers-in-chandapura, Private Data,,12.79754925,77.70737457,Housing Society,0,0
48110,Gravity Icon, Private Data,https://housing.com/in/buy/projects/page/44443-gravity-icon-by-gravity-properties-in-chandapura, Private Data,,12.797824,77.711288,Housing Society,0,0
48102,Associate Castle Town, Private Data,https://housing.com/in/buy/projects/page/48468-associate-castle-town-by-associate-dwellings-in-hennagara, Private Data,,12.797965,77.706464,Housing Society,0,0
47632,Karsten Sai Palms, Private Data,https://housing.com/in/buy/projects/page/210806-karsten-sai-palms-by-karsten-in-bommasandra, Private Data,,12.79850197,77.7049408,Housing Society,0,0
47630,Residential Plot, Private Data,https://housing.com/in/buy/resale/page/5130181-residential-plot-in-bommasandra-for-rs-3080000, Private Data,,12.798661,77.685646,Housing Society,0,0
47695,L Vijayalakshmi Arka Iris Grand, Private Data,https://housing.com/in/buy/projects/page/171755-l-vijayalakshmi-arka-iris-grand-by-l-vijayalakshmi-in-bommasandra, Private Data,,12.79866123,77.68564606,Housing Society,0,0
47699,Surendra Babu P Balaji Elite, Private Data,https://housing.com/in/buy/projects/page/146987-surendra-babu-p-balaji-elite-by-surendra-babu-p-in-bommasandra, Private Data,,12.7988863,77.68112946,Housing Society,0,0
48092,Maxworth Max Srinidhi Sacred Springs, Private Data,https://housing.com/in/buy/projects/page/67941-maxworth-max-srinidhi-sacred-springs-by-swaraj-homes-builders-developer-in-chandapura, Private Data,,12.79910469,77.71218109,Housing Society,0,0
48098,Prasanthi Prashanti Central, Private Data,https://housing.com/in/buy/projects/page/68236-prasanthi-prashanti-central-by-prasanthi-group-in-chandapura, Private Data,,12.79921341,77.7115097,Housing Society,0,0
47651,Sree Sree Shine, Private Data,https://housing.com/in/buy/projects/page/11459-sree-sree-shine-by-sri-vishnu-ventures-in-bommasandra, Private Data,,12.7992363,77.7026062,Housing Society,0,0
48103,Srinivasa Layout, Private Data,https://housing.com/in/buy/projects/page/67938-srinivasa-layout-by-pravahya-infratech-in-chandapura, Private Data,,12.79940987,77.71109009,Housing Society,0,0
47618,AMR Oaks, Private Data,https://housing.com/in/buy/projects/page/16868-amr-oaks-by-amr-housing-development-corporation-in-chandapura, Private Data,,12.79958153,77.70245361,Housing Society,0,0
48107,Living Ananda Nilaya, Private Data,https://housing.com/in/buy/projects/page/205780-living-ananda-nilaya-by-living-space-developers-in-chandapura, Private Data,,12.79960728,77.7134552,Housing Society,0,0
48083,Amoda Springs Phase 2, Private Data,https://housing.com/in/buy/projects/page/205751-amoda-springs-phase-2-by-amoda-properties-in-chandapura, Private Data,,12.79961395,77.71357727,Housing Society,0,0
47665,4 BHK Independent House, Private Data,https://housing.com/in/buy/resale/page/3144477-4-bhk-independent-house-in-bommasandra-for-rs-8600000, Private Data,,12.799691,77.680885,Housing Society,0,0
47631,Icon Grand Icon, Private Data,https://housing.com/in/buy/projects/page/60425-icon-grand-icon-by-icon-homz-in-bommasandra, Private Data,,12.7996912,77.68088531,Housing Society,0,0
47694,Icon Honey Pool, Private Data,https://housing.com/in/buy/projects/page/162246-icon-honey-pool-by-reputed-builder-in-bommasandra, Private Data,,12.799778,77.682877,Housing Society,0,0
48080,Novel Novel Eco, Private Data,https://housing.com/in/buy/projects/page/219866-novel-novel-eco-by-novel-nests-in-chandapura, Private Data,,12.79982185,77.71006012,Housing Society,0,0
48082,Best Green Grove, Private Data,https://housing.com/in/buy/projects/page/208692-best-green-grove-by-best-properties-in-chandapura, Private Data,,12.79988194,77.71114349,Housing Society,0,0
48075,Wood Ridge Pride, Private Data,https://housing.com/in/buy/projects/page/248263-wood-ridge-pride-by-wood-ridge-developers-in-chandapura, Private Data,,12.80001354,77.71327972,Housing Society,0,0
48070,Eden Gardens, Private Data,https://housing.com/in/buy/projects/page/205771-eden-gardens-by-mrs-developers-in-chandapura, Private Data,,12.80018616,77.71331787,Housing Society,0,0
48093,Park Golden Aura Apartment, Private Data,https://housing.com/in/buy/projects/page/154115-park-golden-aura-apartment-by-park-synergy-enterprises-in-chandapura, Private Data,,12.800274,77.712162,Housing Society,0,0
45989,Provident Woodfield, Private Data,https://housing.com/in/buy/projects/page/231592-provident-woodfield-by-provident-housing-limited-in-bommasandra, Private Data,,12.80031776,77.6855545,Housing Society,0,0
48081,3 BHK Apartment, Private Data,https://housing.com/in/buy/resale/page/4746271-3-bhk-apartment-in-chandapura-for-rs-3900000, Private Data,,12.800335,77.705526,Housing Society,0,0
48108,Annciya Padmavathi Layout, Private Data,https://housing.com/in/buy/projects/page/67936-annciya-padmavathi-layout-by-annciya-estates-in-chandapura, Private Data,,12.8004694,77.71386719,Housing Society,0,0
47612,5 BHK Independent House, Private Data,https://housing.com/in/buy/resale/page/3628126-5-bhk-independent-house-in-bommasandra-for-rs-9500000, Private Data,,12.800579,77.70222,Housing Society,0,0
47666,Sriven Daksha Elite, Private Data,https://housing.com/in/buy/projects/page/233342-sriven-daksha-elite-by-sriven-properties-in-bommasandra, Private Data,,12.80065155,77.68544769,Housing Society,0,0
47677,Vintage Green Woods, Private Data,https://housing.com/in/buy/projects/page/100221-vintage-green-woods-by-vintage-shelters-in-bommasandra, Private Data,,12.80067539,77.69252014,Housing Society,0,0
48104,Inest Peninsula Plot, Private Data,https://housing.com/in/buy/projects/page/67939-inest-peninsula-plot-by-swaraj-homes-builders-developer-in-chandapura, Private Data,,12.80072021,77.71125031,Housing Society,0,0
48088,Jaithra Towers, Private Data,https://housing.com/in/buy/projects/page/222409-jaithra-towers-by-jaithra-projects-in-chandapura, Private Data,,12.80081558,77.70661163,Housing Society,0,0
48084,MBT Chandapura Residency, Private Data,https://housing.com/in/buy/projects/page/173058-mbt-chandapura-residency-by-reputed-builder-in-chandapura, Private Data,,12.800827,77.706087,Housing Society,0,0
48071,3 BHK Apartment, Private Data,https://housing.com/in/buy/resale/page/4431343-3-bhk-apartment-in-chandapura-for-rs-3800000, Private Data,,12.800892,77.711166,Housing Society,0,0
48079,Balaji S And S Delight, Private Data,https://housing.com/in/buy/projects/page/42620-balaji-s-and-s-delight-by-sri-balaji-builders-in-chandapura, Private Data,,12.80092525,77.71453094,Housing Society,0,0
48077,Valdis V4 Camelia, Private Data,https://housing.com/in/buy/projects/page/47873-valdis-v4-camelia-by-valdis-group-in-chandapura, Private Data,,12.800992,77.714674,Housing Society,0,0
48106,Kritan Surya City Phase 2, Private Data,https://housing.com/in/buy/projects/page/67933-kritan-surya-city-phase-2-by-kritan-urbane-living-in-chandapura, Private Data,,12.80106354,77.71379852,Housing Society,0,0
48076,Residential Plot, Private Data,https://housing.com/in/buy/resale/page/4954350-residential-plot-in-chandapura-for-rs-2400000, Private Data,,12.801064,77.713799,Housing Society,0,0
47610,2 BHK Apartment, Private Data,https://housing.com/in/buy/resale/page/2835167-2-bhk-apartment-in-bommasandra-for-rs-3735000, Private Data,,12.801067,77.670268,Housing Society,0,0
47685,Daadys Dollar Town, Private Data,https://housing.com/in/buy/projects/page/68014-daadys-dollar-town-by-daadys-builders-in-bommasandra, Private Data,,12.80120087,77.69602966,Housing Society,0,0
47645,Sri Sri Amruta Varshini, Private Data,https://housing.com/in/buy/projects/page/36525-sri-sri-amruta-varshini-by-sri-sri-construction-in-bommasandra, Private Data,,12.801631,77.702341,Housing Society,0,0
48099,Terracon Terracon Grande, Private Data,https://housing.com/in/buy/projects/page/219046-terracon-terracon-grande-by-terracon-projects-pvy-ltd-in-chandapura, Private Data,,12.80175781,77.71445465,Housing Society,0,0
47683,Lakeview Golden Nest, Private Data,https://housing.com/in/buy/projects/page/27258-lakeview-golden-nest-by-reputed-builder-in-chandapura, Private Data,,12.80175781,77.71470642,Housing Society,0,0
48091,Balaji Complex, Private Data,https://housing.com/in/buy/projects/page/167198-balaji-complex-by-reputed-builder-in-chandapura, Private Data,,12.801848,77.705283,Housing Society,0,0
47703,Anish Triangle Garden City, Private Data,https://housing.com/in/buy/projects/page/58645-anish-triangle-garden-city-by-anish-projects-builders-in-bommasandra, Private Data,,12.80185699,77.70407867,Housing Society,0,0
47613,MVS Orchid, Private Data,https://housing.com/in/buy/projects/page/32152-mvs-orchid-by-mvs-builders-in-bommasandra, Private Data,,12.80187607,77.70455933,Housing Society,0,0
47687,Icon Iconest 3, Private Data,https://housing.com/in/buy/projects/page/128284-icon-iconest-3-by-icon-homz-in-bommasandra, Private Data,,12.80196667,77.67934418,Housing Society,0,0
47599,2 BHK Apartment, Private Data,https://housing.com/in/buy/resale/page/4859804-2-bhk-apartment-in-bommasandra-for-rs-3250000, Private Data,,12.801967,77.679344,Housing Society,0,0
48096,Aston Bell Spring, Private Data,https://housing.com/in/buy/projects/page/217976-aston-bell-spring-by-dasha-in-chandapura, Private Data,,12.80204105,77.71260071,Housing Society,0,0
48100,Phoenix Satkeerti Symphony, Private Data,https://housing.com/in/buy/projects/page/217752-phoenix-satkeerti-symphony-by-phoenix-infrastructure-in-chandapura, Private Data,,12.80208969,77.71515656,Housing Society,0,0
48074,2 BHK Independent House, Private Data,https://housing.com/in/buy/resale/page/3908198-2-bhk-independent-house-in-chandapura-for-rs-5800000, Private Data,,12.802129,77.715026,Housing Society,0,0
48095,Subbamma, Private Data,https://housing.com/in/buy/projects/page/167185-subbamma-by-reputed-builder-in-chandapura, Private Data,,12.80223,77.711336,Housing Society,0,0
47606,Magnum Elegancy, Private Data,https://housing.com/in/buy/projects/page/220877-magnum-elegancy-by-magnum-developers-in-bommasandra, Private Data,,12.80251598,77.68947601,Housing Society,0,0
47649,Vintage Flora, Private Data,https://housing.com/in/buy/projects/page/205906-vintage-flora-by-vintage-shelters-in-bommasandra, Private Data,,12.80255985,77.70440674,Housing Society,0,0
47623,Neesarga Keerthana, Private Data,https://housing.com/in/buy/projects/page/151373-neesarga-keerthana-by-reputed-builder-in-bommasandra, Private Data,,12.802688,77.700741,Housing Society,0,0
47617,Nisarga Gateway, Private Data,https://housing.com/in/buy/projects/page/167174-nisarga-gateway-by-reputed-builder-in-bommasandra, Private Data,,12.802692,77.701175,Housing Society,0,0
48086,Vaibhava Vasantha, Private Data,https://housing.com/in/buy/projects/page/67940-vaibhava-vasantha-by-swaraj-homes-builders-developer-in-chandapura, Private Data,,12.80285263,77.71588898,Housing Society,0,0
47659,Ashraya Sri Sai Nagara, Private Data,https://housing.com/in/buy/projects/page/249825-ashraya-sri-sai-nagara-by-ashraya-group-bangalore-in-bommasandra, Private Data,,12.80298996,77.68492889,Housing Society,0,0
48090,VDB BR Valley Park, Private Data,https://housing.com/in/buy/projects/page/248270-vdb-br-valley-park-by-vdb-infra-realty-pvt-ltd-in-chandapura, Private Data,,12.80308342,77.71564484,Housing Society,0,0
48078,Aashrithaa Sai Priya Residency, Private Data,https://housing.com/in/buy/projects/page/248259-aashrithaa-sai-priya-residency-by-aashritha-properties-pvt-ltd-in-chandapura, Private Data,,12.80335617,77.717453,Housing Society,0,0
45883,Avhni Abode Gomati Iris, Private Data,https://housing.com/in/buy/projects/page/41541-avhni-abode-gomati-iris-by-avhni-abode-in-electronic-city, Private Data,,12.803357,77.671442,Housing Society,0,0
47616,2 BHK Independent House, Private Data,https://housing.com/in/buy/resale/page/4055480-2-bhk-independent-house-in-bommasandra-for-rs-3500000, Private Data,,12.803417,77.671527,Housing Society,0,0
47682,2 BHK Independent House, Private Data,https://housing.com/in/buy/resale/page/2513524-2-bhk-independent-house-in-bommasandra-for-rs-2300000, Private Data,,12.803609,77.666491,Housing Society,0,0
47667,Shabari SS South Crest, Private Data,https://housing.com/in/buy/projects/page/23609-shabari-ss-south-crest-by-shri-shabari-infrastructures-in-bommasandra, Private Data,,12.80366421,77.6657486,Housing Society,0,0
48111,Prabhavathi Royal City, Private Data,https://housing.com/in/buy/projects/page/90813-prabhavathi-royal-city-by-prabhavathi-builders-developers-pvt-ltd-in-chandapura, Private Data,,12.80391312,77.71518707,Housing Society,0,0
47674,Kataria Residency, Private Data,https://housing.com/in/buy/projects/page/5317-kataria-residency-by-kataria-builteck-pvt-ltd-in-bommasandra, Private Data,,12.804291,77.674728,Housing Society,0,0
47664,K B Paradise, Private Data,https://housing.com/in/buy/projects/page/155149-k-b-paradise-by-reputed-builder-in-bommasandra, Private Data,,12.804342,77.674745,Housing Society,0,0
47688,Kataria Paradise, Private Data,https://housing.com/in/buy/projects/page/6541-kataria-paradise-by-kataria-builteck-pvt-ltd-in-yarandahalli, Private Data,,12.804345,77.6747,Housing Society,0,0
45673,Sriven Rag Meridian, Private Data,https://housing.com/in/buy/projects/page/127604-sriven-rag-meridian-by-sriven-properties-in-electronic-city, Private Data,,12.80485,77.685654,Housing Society,0,0
45565,Siri Sbm Residency, Private Data,https://housing.com/in/buy/projects/page/41814-siri-sbm-residency-by-siri-homes-in-electronic-city, Private Data,,12.804907,77.697449,Housing Society,0,0
48097,S2 Homes Mystic Woods, Private Data,https://housing.com/in/buy/projects/page/44435-s2-homes-mystic-woods-by-s2-homes-in-chandapura, Private Data,,12.805051,77.715584,Housing Society,0,0
47614,RK Atulya, Private Data,https://housing.com/in/buy/projects/page/220558-rk-atulya-by-rk-developers-in-bommasandra, Private Data,,12.80516338,77.67201233,Housing Society,0,0
47670,Atulya Apartment, Private Data,https://housing.com/in/buy/projects/page/154100-atulya-apartment-by-reputed-builder-in-bommasandra, Private Data,,12.805189,77.67204,Housing Society,0,0
15742,Vasavi Provision Stores, Private Data,, Private Data,,12.8052456,77.5787804,Grocery,0,0
47663,TCH Studio Suites 9, Private Data,https://housing.com/in/buy/projects/page/39647-tch-studio-suites-9-by-tch-in-bommasandra, Private Data,,12.805249,77.677115,Housing Society,0,0
10567,Beauty Parlour, Private Data,, Private Data,,12.8055714,77.6047649,Salon,0,0
47595,3 BHK Apartment, Private Data,https://housing.com/in/buy/resale/page/2042229-3-bhk-apartment-in-bommasandra-for-rs-5000000, Private Data,,12.805637,77.662074,Housing Society,0,0
47684,Comfort Residency, Private Data,https://housing.com/in/buy/projects/page/183737-comfort-residency-by-elite-properties-in-bommasandra, Private Data,,12.80567,77.673445,Housing Society,0,0
47697,9 BHK Independent Floor, Private Data,https://housing.com/in/buy/resale/page/3082723-9-bhk-independent-floor-in-bommasandra-for-rs-18500000, Private Data,,12.805705,77.672226,Housing Society,0,0
47604,Southern Springs Apartments, Private Data,https://housing.com/in/buy/projects/page/132205-southern-springs-apartments-by-reputed-builder-in-bommasandra, Private Data,,12.805762,77.671999,Housing Society,0,0
48109,Hyde Park, Private Data,https://housing.com/in/buy/projects/page/206656-hyde-park-by-excel-dwellings-india-in-chandapura, Private Data,,12.80584621,77.71179962,Housing Society,0,0
47634,2 BHK Apartment, Private Data,https://housing.com/in/buy/resale/page/5073237-2-bhk-apartment-in-bommasandra-for-rs-3250000, Private Data,,12.805861,77.698639,Housing Society,0,0
47689,Sai Suraj, Private Data,https://housing.com/in/buy/projects/page/162960-sai-suraj-by-reputed-builder-in-bommasandra, Private Data,,12.806034,77.671377,Housing Society,0,0
47680,Sri Sai Pruthvi Residency, Private Data,https://housing.com/in/buy/projects/page/160592-sri-sai-pruthvi-residency-by-reputed-builder-in-bommasandra, Private Data,,12.806064,77.672487,Housing Society,0,0
47622,Vijayas Vaibhav, Private Data,https://housing.com/in/buy/projects/page/131264-vijayas-vaibhav-by-reputed-builder-in-bommasandra, Private Data,,12.806148,77.675174,Housing Society,0,0
47696,2 BHK Villa, Private Data,https://housing.com/in/buy/resale/page/4951018-2-bhk-villa-in-bommasandra-for-rs-3925000, Private Data,,12.806445,77.662697,Housing Society,0,0
47678,2 BHK Independent House, Private Data,https://housing.com/in/buy/resale/page/4068414-2-bhk-independent-house-in-bommasandra-for-rs-3500000, Private Data,,12.806564,77.678542,Housing Society,0,0
45857,Keystone Balaji Elite, Private Data,https://housing.com/in/buy/projects/page/35501-keystone-balaji-elite-by-keystone-properties-in-electronic-city, Private Data,,12.806629,77.696579,Housing Society,0,0
47647,Devi Residency, Private Data,https://housing.com/in/buy/projects/page/38236-devi-residency-by-devi-constructions-in-bommasandra, Private Data,,12.806746,77.671469,Housing Society,0,0
47644,Residential Plot, Private Data,https://housing.com/in/buy/resale/page/3899220-residential-plot-in-bommasandra-for-rs-5500000, Private Data,,12.806947,77.672813,Housing Society,0,0
47625,IT Villa Pavilion, Private Data,https://housing.com/in/buy/projects/page/219659-it-villa-pavilion-by-it-estates-in-bommasandra, Private Data,,12.80701828,77.6701889,Housing Society,0,0
45445,Prasiddhi Cloud 9, Private Data,https://housing.com/in/buy/projects/page/4225-prasiddhi-cloud-9-by-prasiddhi-group-in-electronic-city, Private Data,,12.807083,77.687218,Housing Society,0,0
47637,Icon Honey Pool, Private Data,https://housing.com/in/buy/projects/page/219250-icon-honey-pool-by-icon-homz-in-bommasandra, Private Data,,12.80778408,77.67578125,Housing Society,0,0
45381,3 BHK Villa, Private Data,https://housing.com/in/buy/resale/page/3887886-3-bhk-villa-in-bommasandra-for-rs-8700000, Private Data,,12.807942,77.683678,Housing Society,0,0
45503,2 BHK Apartment, Private Data,https://housing.com/in/buy/resale/page/5077519-2-bhk-apartment-in-bommasandra-for-rs-3294892, Private Data,,12.807942,77.683678,Housing Society,0,0
45592,5 BHK Independent House, Private Data,https://housing.com/in/buy/resale/page/4388794-5-bhk-independent-house-in-bommasandra-for-rs-14500000, Private Data,,12.807942,77.683678,Housing Society,0,0
45756,Residential Plot, Private Data,https://housing.com/in/buy/resale/page/4685079-residential-plot-in-bommasandra-for-rs-3720000, Private Data,,12.807942,77.683678,Housing Society,0,0
47660,Gokul Kuteer, Private Data,https://housing.com/in/buy/projects/page/70792-gokul-kuteer-by-swaraj-homes-builders-developer-in-yarandahalli, Private Data,,12.80824375,77.67195892,Housing Society,0,0
47690,Aaradhana Aranya Residency, Private Data,https://housing.com/in/buy/projects/page/3960-aaradhana-aranya-residency-by-aaradhana-buildcon-emprises-in-bommasandra, Private Data,,12.80851555,77.67021942,Housing Society,0,0
30075,Five Star Chicken, Private Data,, Private Data,,12.8087432,77.5899406,Restaurant,0,0
45621,Southern Springs, Private Data,https://housing.com/in/buy/projects/page/222246-southern-springs-by-southern-heritage-in-electronic-city, Private Data,,12.80883,77.683289,Housing Society,0,0
47698,Ideal Ideal Hitech, Private Data,https://housing.com/in/buy/projects/page/219454-ideal-ideal-hitech-by-the-ideal-homes-in-bommasandra, Private Data,,12.80890274,77.67233276,Housing Society,0,0
45965,Ram Sai Residency, Private Data,https://housing.com/in/buy/projects/page/45100-ram-sai-residency-by-sai-ram-builders-in-electronic-city, Private Data,,12.809222,77.678833,Housing Society,0,0
47650,RK RK Township Apartment, Private Data,https://housing.com/in/buy/projects/page/209605-rk-rk-township-apartment-by-rk-developers-in-bommasandra, Private Data,,12.80924511,77.66925049,Housing Society,0,0
47701,2 BHK Villa, Private Data,https://housing.com/in/buy/resale/page/5220206-2-bhk-villa-in-bommasandra-for-rs-5000000, Private Data,,12.809516,77.702597,Housing Society,0,0
47643,2 BHK Independent House, Private Data,https://housing.com/in/buy/resale/page/4919732-2-bhk-independent-house-in-bommasandra-for-rs-9900000, Private Data,,12.809876,77.703338,Housing Society,0,0
45768,1 BHK Independent Floor, Private Data,https://housing.com/in/buy/resale/page/3505971-1-bhk-independent-floor-in-bommasandra-for-rs-59000000, Private Data,,12.809932,77.679444,Housing Society,0,0
47700,Anugraha Apartment, Private Data,https://housing.com/in/buy/projects/page/145127-anugraha-apartment-by-reputed-builder-in-bommasandra, Private Data,,12.809947,77.676073,Housing Society,0,0
47693,Residential Plot, Private Data,https://housing.com/in/buy/resale/page/5211372-residential-plot-in-bommasandra-for-rs-3500000, Private Data,,12.810059,77.664142,Housing Society,0,0
45757,Sri Shiva Shakti Complex, Private Data,https://housing.com/in/buy/projects/page/69118-sri-shiva-shakti-complex-by-swaraj-homes-builders-developer-in-bommasandra, Private Data,,12.81015301,77.69084167,Housing Society,0,0
3316,Canara Bank ATM, Private Data,, Private Data,,12.8103469,77.5813634,ATM,0,0
45535,Serinity Apartment, Private Data,https://housing.com/in/buy/projects/page/91140-serinity-apartment-by-swaraj-homes-builders-developer-in-bommasandra, Private Data,,12.81048775,77.68462372,Housing Society,0,0
47662,5 BHK Independent House, Private Data,https://housing.com/in/buy/resale/page/2667001-5-bhk-independent-house-in-bommasandra-for-rs-13500000, Private Data,,12.810498,77.6662,Housing Society,0,0
47673,Dreamciti Aranya Residency, Private Data,https://housing.com/in/buy/projects/page/221229-dreamciti-aranya-residency-by-dreamciti-realty-pvt-ltd-in-bommasandra, Private Data,,12.81085968,77.66898346,Housing Society,0,0
47692,Lasya Vikas Nagar, Private Data,https://housing.com/in/buy/projects/page/222151-lasya-vikas-nagar-by-lasya-developers-in-bommasandra, Private Data,,12.81184292,77.67071533,Housing Society,0,0
47619,Residential Plot, Private Data,https://housing.com/in/buy/resale/page/5032317-residential-plot-in-bommasandra-for-rs-5000000, Private Data,,12.812408,77.658127,Housing Society,0,0
47639,City Homes, Private Data,https://housing.com/in/buy/projects/page/113362-city-homes-by-r-subramanyeswara-rao-in-bommasandra, Private Data,,12.81240845,77.65812683,Housing Society,0,0
47602,2 BHK Villa, Private Data,https://housing.com/in/buy/resale/page/3966958-2-bhk-villa-in-bommasandra-for-rs-3835000, Private Data,,12.812578,77.666766,Housing Society,0,0
8156,Loreal Beauty Salon, Private Data,, Private Data,,12.8126137,77.5108516,Salon,0,0
17952,The Arcade At Brigade Meadows, Private Data,, Private Data,,12.8129554,77.510752,Mall,0,0
45501,Residential Plot, Private Data,https://housing.com/in/buy/resale/page/5164632-residential-plot-in-bommasandra-for-rs-3300000, Private Data,,12.812999,77.69092,Housing Society,0,0
45536,2 BHK Apartment, Private Data,https://housing.com/in/buy/resale/page/5098124-2-bhk-apartment-in-bommasandra-for-rs-3700000, Private Data,,12.813059,77.690262,Housing Society,0,0
3181,Idbi ATM, Private Data,, Private Data,,12.813208,77.581548,ATM,0,0
3256,Canara Bank ATM, Private Data,, Private Data,,12.8132225,77.5813036,ATM,0,0
47679,2 BHK Independent House, Private Data,https://housing.com/in/buy/resale/page/4692442-2-bhk-independent-house-in-bommasandra-for-rs-7500000, Private Data,,12.813232,77.697868,Housing Society,0,0
47607,Alps Aurora, Private Data,https://housing.com/in/buy/projects/page/20893-alps-aurora-by-alps-developers-in-bommasandra, Private Data,,12.8132658,77.66816711,Housing Society,0,0
20791,Karnataka Tour Travels, Private Data,, Private Data,,12.8135208,77.5804784,Mall,0,0
15741,Annapoorne Shwarei Provision Store, Private Data,, Private Data,,12.8135494,77.5888814,Grocery,0,0
3913,Canara Bank ATM, Private Data,, Private Data,,12.8136454,77.5795555,ATM,0,0
45417,2 BHK Villa, Private Data,https://housing.com/in/buy/resale/page/2677314-2-bhk-villa-in-bommasandra-for-rs-4256000, Private Data,,12.813652,77.682627,Housing Society,0,0
45576,2 BHK Independent House, Private Data,https://housing.com/in/buy/resale/page/2552603-2-bhk-independent-house-in-bommasandra-for-rs-2150000, Private Data,,12.813774,77.678609,Housing Society,0,0
45685,2 BHK Apartment, Private Data,https://housing.com/in/buy/resale/page/5195555-2-bhk-apartment-in-bommasandra-industrial-area-for-rs-3700000, Private Data,,12.813774,77.679124,Housing Society,0,0
47636,Mdvr SV Shelters, Private Data,https://housing.com/in/buy/projects/page/232119-mdvr-sv-shelters-by-mdvr-projects-pvt-ltd-in-bommasandra, Private Data,,12.81390095,77.70808411,Housing Society,0,0
47596,2 BHK Apartment, Private Data,https://housing.com/in/buy/resale/page/4852376-2-bhk-apartment-in-bommasandra-for-rs-3808000, Private Data,,12.813901,77.708084,Housing Society,0,0
45559,Dwarakamai Castle, Private Data,https://housing.com/in/buy/projects/page/113097-dwarakamai-castle-by-info-in-electronic-city, Private Data,,12.813956,77.689804,Housing Society,0,0
47686,Damodara Sreenidhi Serenity, Private Data,https://housing.com/in/buy/projects/page/144875-damodara-sreenidhi-serenity-by-damodara-reddy-regalla-in-bommasandra, Private Data,,12.81396866,77.69424438,Housing Society,0,0
54009,Mahalakshmi stores, Private Data,, Private Data,,12.8140202,77.6913901,Super Market,0,0
15472,Nyaya Bele Angadi, Private Data,, Private Data,,12.8140438,77.5791601,Grocery,0,0
47671,Kataria Royale, Private Data,https://housing.com/in/buy/projects/page/2725-kataria-royale-by-kataria-builteck-pvt-ltd-in-bommasandra, Private Data,,12.814563,77.702904,Housing Society,0,0
45598,Svamitva Emerald Square, Private Data,https://housing.com/in/buy/projects/page/102434-svamitva-emerald-square-by-svamitva-infra-in-electronic-city, Private Data,,12.814702,77.67012,Housing Society,0,0
45469,2 BHK Villa, Private Data,https://housing.com/in/buy/resale/page/2777648-2-bhk-villa-in-bommasandra-for-rs-4022000, Private Data,,12.814849,77.670952,Housing Society,0,0
45873,2 BHK Independent House, Private Data,https://housing.com/in/buy/resale/page/3649541-2-bhk-independent-house-in-bommasandra-for-rs-3990000, Private Data,,12.814849,77.670952,Housing Society,0,0
45401,Heritage Ornate, Private Data,https://housing.com/in/buy/projects/page/172579-heritage-ornate-by-heritage-housing-projects-in-electronic-city, Private Data,,12.814949,77.673029,Housing Society,0,0
47621,2 BHK Villa, Private Data,https://housing.com/in/buy/resale/page/2535610-2-bhk-villa-in-bommasandra-for-rs-2560000, Private Data,,12.815107,77.659973,Housing Society,0,0
45888,Residential Plot, Private Data,https://housing.com/in/buy/resale/page/2549099-residential-plot-in-bommasandra-for-rs-2010000, Private Data,,12.815122,77.670921,Housing Society,0,0
47661,Dhiraan Newark Farm Springs, Private Data,https://housing.com/in/buy/projects/page/69116-dhiraan-newark-farm-springs-by-dhiraan-infrastructure-in-bommasandra, Private Data,,12.81514359,77.70505524,Housing Society,0,0
47681,2 BHK Villa, Private Data,https://housing.com/in/buy/resale/page/3414750-2-bhk-villa-in-bommasandra-for-rs-8500000, Private Data,,12.815462,77.703308,Housing Society,0,0
45549,Gagan Garden Residency, Private Data,https://housing.com/in/buy/projects/page/86292-gagan-garden-residency-by-gagan-constructions-in-bommasandra, Private Data,,12.81548405,77.68481445,Housing Society,0,0
3255,Vijaya Bank And ATM, Private Data,, Private Data,,12.8156228,77.582933,ATM,0,0
45842,Manasa Sri Sai Homes, Private Data,https://housing.com/in/buy/projects/page/205731-manasa-sri-sai-homes-by-manasa-developers-in-electronic-city, Private Data,,12.815677,77.673805,Housing Society,0,0
3093,Federal Bank ATM, Private Data,, Private Data,,12.8158559,77.5833973,ATM,0,0
45586,Niranjan Sunbeam, Private Data,https://housing.com/in/buy/projects/page/47908-niranjan-sunbeam-by-niranjan-developers-in-bommasandra, Private Data,,12.816079,77.672873,Housing Society,0,0
45415,Residential Plot, Private Data,https://housing.com/in/buy/resale/page/2482937-residential-plot-in-bommasandra-for-rs-1990500, Private Data,,12.816117,77.681358,Housing Society,0,0
47620,4 BHK Independent House, Private Data,https://housing.com/in/buy/resale/page/3694371-4-bhk-independent-house-in-bommasandra-for-rs-8100000, Private Data,,12.816512,77.707683,Housing Society,0,0
45442,Residential Plot, Private Data,https://housing.com/in/buy/resale/page/4561001-residential-plot-in-electronic-city-for-rs-9600000, Private Data,,12.81673,77.697437,Housing Society,0,0
46020,3 BHK Villa, Private Data,https://housing.com/in/buy/resale/page/4048842-3-bhk-villa-in-bommasandra-for-rs-8500000, Private Data,,12.81673,77.697437,Housing Society,0,0
47600,3 BHK Apartment, Private Data,https://housing.com/in/buy/resale/page/2035556-3-bhk-apartment-in-bommasandra-for-rs-5100000, Private Data,,12.816847,77.698949,Housing Society,0,0
45804,Sri Charkra Blossom, Private Data,https://housing.com/in/buy/projects/page/171730-sri-charkra-blossom-by-sri-chakra-construction-in-electronic-city, Private Data,,12.816966,77.682114,Housing Society,0,0
45687,RK RK City, Private Data,https://housing.com/in/buy/projects/page/220539-rk-rk-city-by-rk-developers-in-electronic-city, Private Data,,12.816969,77.682945,Housing Society,0,0
45907,SRK Samrudhi Suits, Private Data,https://housing.com/in/buy/projects/page/222092-srk-samrudhi-suits-by-srk-group-in-electronic-city, Private Data,,12.81699,77.674278,Housing Society,0,0
47609,Residential Plot, Private Data,https://housing.com/in/buy/resale/page/4777404-residential-plot-in-bommasandra-for-rs-3800000, Private Data,,12.817576,77.707972,Housing Society,0,0
45949,i1 Sri Ram Vrindavan, Private Data,https://housing.com/in/buy/projects/page/74968-i1-sri-ram-vrindavan-by-i1-properties-in-electronic-city, Private Data,,12.81801,77.682938,Housing Society,0,0
47635,Daiwik Spandana, Private Data,https://housing.com/in/buy/projects/page/101563-daiwik-spandana-by-daiwik-housing-pvt-ltd-in-bommasandra, Private Data,,12.81845093,77.7095108,Housing Society,0,0
47658,4 BHK Villa, Private Data,https://housing.com/in/buy/resale/page/2930894-4-bhk-villa-in-bommasandra-for-rs-15000000, Private Data,,12.818451,77.709511,Housing Society,0,0
47642,Urban Retreat, Private Data,https://housing.com/in/buy/projects/page/157812-urban-retreat-by-reputed-builder-in-bommasandra, Private Data,,12.818478,77.71105,Housing Society,0,0
45529,3 BHK Apartment, Private Data,https://housing.com/in/buy/resale/page/4777902-3-bhk-apartment-in-bommasandra-for-rs-4366000, Private Data,,12.818525,77.671043,Housing Society,0,0
45758,DS Max Skyclassic, Private Data,https://housing.com/in/buy/projects/page/45051-ds-max-skyclassic-by-dsmax-properties-in-electronic-city, Private Data,,12.818525,77.671043,Housing Society,0,0
45628,2 BHK Apartment, Private Data,https://housing.com/in/buy/resale/page/2003303-2-bhk-apartment-in-electronic-city-for-rs-4100000, Private Data,,12.818807,77.692672,Housing Society,0,0
45997,Kritan Asta, Private Data,https://housing.com/in/buy/projects/page/31941-kritan-asta-by-kritan-urbane-living-in-bommasandra, Private Data,,12.81885242,77.66316223,Housing Society,0,0
28037,Mtr, Private Data,, Private Data,,12.8191488,77.5138583,Restaurant,0,0
45465,2 BHK Villa, Private Data,https://housing.com/in/buy/resale/page/2851164-2-bhk-villa-in-electronic-city-for-rs-1980000, Private Data,,12.819441,77.672444,Housing Society,0,0
45900,Magnum YR Enclave, Private Data,https://housing.com/in/buy/projects/page/66594-magnum-yr-enclave-by-magnum-developers-in-bommasandra, Private Data,,12.81999969,77.66999817,Housing Society,0,0
45597,DSMAX SILVER WOOD, Private Data,https://housing.com/in/buy/projects/page/45050-dsmax-silver-wood-by-dsmax-properties-in-bommasandra, Private Data,,12.820243,77.695717,Housing Society,0,0
45517,3 BHK Apartment, Private Data,https://housing.com/in/buy/resale/page/4707062-3-bhk-apartment-in-bommasandra-for-rs-4500000, Private Data,,12.820298,77.676377,Housing Society,0,0
45526,Residential Plot, Private Data,https://housing.com/in/buy/resale/page/4839194-residential-plot-in-bommasandra-for-rs-4500000, Private Data,,12.820298,77.676377,Housing Society,0,0
45607,2 BHK Independent Floor, Private Data,https://housing.com/in/buy/resale/page/3969892-2-bhk-independent-floor-in-bommasandra-for-rs-3500000, Private Data,,12.820298,77.676377,Housing Society,0,0
45392,2 BHK Apartment, Private Data,https://housing.com/in/buy/resale/page/2792235-2-bhk-apartment-in-bommasandra-for-rs-3800000, Private Data,,12.820469,77.685304,Housing Society,0,0
45414,Stanford Omkar Homes, Private Data,https://housing.com/in/buy/projects/page/154697-stanford-omkar-homes-by-reputed-builder-in-rs-gardens, Private Data,,12.820526,77.692899,Housing Society,0,0
45434,2 BHK Apartment, Private Data,https://housing.com/in/buy/resale/page/5198850-2-bhk-apartment-in-bommasandra-for-rs-5500000, Private Data,,12.820597,77.663704,Housing Society,0,0
45491,GM Infinite E-City Town, Private Data,https://housing.com/in/buy/projects/page/25947-gm-infinite-ecity-town-by-gm-infinite-in-thirupalya, Private Data,,12.820597,77.663704,Housing Society,0,0
45564,2 BHK Villa, Private Data,https://housing.com/in/buy/resale/page/4151600-2-bhk-villa-in-electronic-city-for-rs-2769499, Private Data,,12.820637,77.655429,Housing Society,0,0
45476,Cosmos Mayflower Gardenia, Private Data,https://housing.com/in/buy/projects/page/37721-cosmos-mayflower-gardenia-by-cosmos-group-in-bommasandra, Private Data,,12.820637,77.670946,Housing Society,0,0
45937,Accent Shiva Sai Apartment, Private Data,https://housing.com/in/buy/projects/page/220201-accent-shiva-sai-apartment-by-accent-in-electronic-city, Private Data,,12.820908,77.686134,Housing Society,0,0
45885,Siri Symphony, Private Data,https://housing.com/in/buy/projects/page/243221-siri-symphony-by-siri-housing-in-thirupalya, Private Data,,12.82094193,77.66120911,Housing Society,0,0
45471,2 BHK Independent House, Private Data,https://housing.com/in/buy/resale/page/2552478-2-bhk-independent-house-in-electronic-city-for-rs-2750000, Private Data,,12.821115,77.656651,Housing Society,0,0
45389,1 BHK Apartment, Private Data,https://housing.com/in/buy/resale/page/4341434-1-bhk-apartment-in-bommasandra-for-rs-3700000, Private Data,,12.821116,77.655952,Housing Society,0,0
45539,Keya The Green Terraces, Private Data,https://housing.com/in/buy/projects/page/39107-keya-the-green-terraces-by-keya-homes-in-electronic-city, Private Data,,12.821116,77.655952,Housing Society,0,0
45846,Patel Smondo 3, Private Data,https://housing.com/in/buy/projects/page/108761-patel-smondo-3-by-patel-realty-india-in-bommasandra, Private Data,,12.82117844,77.6598587,Housing Society,0,0
54019,Pari Fresh Green Terrace, Private Data,, Private Data,,12.8211972,77.6560271,Super Market,0,0
54014,Royal Villas supermarket, Private Data,, Private Data,,12.8212285,77.6578004,Super Market,0,0
26469,Apollo Pharmacy, Private Data,, Private Data,,12.8212769,77.6556141,Pharmacy,0,0
45899,Patel Smondoville, Private Data,https://housing.com/in/buy/projects/page/67990-patel-smondoville-by-patel-realty-india-in-bommasandra, Private Data,,12.8213129,77.6577301,Housing Society,0,0
1469,"NOVEL FRESH,", Private Data,, Private Data,,12.8213978,77.6601407,Super Market,0,0
54011,Novel Fresh, Private Data,, Private Data,,12.8213978,77.6601407,Super Market,0,0
45568,2 BHK Villa, Private Data,https://housing.com/in/buy/resale/page/2508552-2-bhk-villa-in-bommasandra-for-rs-1890000, Private Data,,12.821802,77.66169,Housing Society,0,0
45797,Somdo Ville, Private Data,https://housing.com/in/buy/projects/page/77414-somdo-ville-by-swaraj-homes-builders-developer-in-bommasandra, Private Data,,12.82199192,77.65779114,Housing Society,0,0
41424,Grocery Store, Private Data,, Private Data,,12.8220903,77.5584865,Super Market,0,0
21742,Neo Mall Bus Stop, Private Data,, Private Data,,12.8221765,77.6603126,Mall,0,0
45895,GM Elegance Tower, Private Data,https://housing.com/in/buy/projects/page/41568-gm-elegance-tower-by-gm-infinite-in-bommasandra, Private Data,,12.82225323,77.65711975,Housing Society,0,0
1544,"SRI MATHAJI ELECTRICALS,", Private Data,, Private Data,,12.8223504,77.6863411,Super Market,0,0
45640,RS Royal Gardeenia, Private Data,https://housing.com/in/buy/projects/page/92944-rs-royal-gardeenia-by-r-s-developers-in-rs-gardens, Private Data,,12.8229351,77.68582916,Housing Society,0,0
45700,2 BHK Independent House, Private Data,https://housing.com/in/buy/resale/page/2540307-2-bhk-independent-house-in-electronic-city-for-rs-1940000, Private Data,,12.823124,77.670384,Housing Society,0,0
45659,Residential Plot, Private Data,https://housing.com/in/buy/resale/page/5077128-residential-plot-in-electronic-city-for-rs-4920000, Private Data,,12.823517,77.668185,Housing Society,0,0
45860,Creative Green Wood Empire, Private Data,https://housing.com/in/buy/projects/page/2247-creative-green-wood-empire-by-creative-infrastructure-in-hebbagodi, Private Data,,12.8236599,77.68013763,Housing Society,0,0
46011,Sangani Sangani Green Wood Empire Villas, Private Data,https://housing.com/in/buy/projects/page/62056-sangani-sangani-green-wood-empire-villas-by-sangani-infrastructure-pvt-ltd-in-jigani, Private Data,,12.8236599,77.68013763,Housing Society,0,0
45809,GM Global Techies Town, Private Data,https://housing.com/in/buy/projects/page/40850-gm-global-techies-town-by-gm-infinite-in-bommasandra, Private Data,,12.82384872,77.66120148,Housing Society,0,0
45697,Residential Plot, Private Data,https://housing.com/in/buy/resale/page/4971433-residential-plot-in-electronic-city-for-rs-3858000, Private Data,,12.824132,77.660641,Housing Society,0,0
45486,2 BHK Independent House, Private Data,https://housing.com/in/buy/resale/page/4797666-2-bhk-independent-house-in-vidyanagar-for-rs-5500000, Private Data,,12.824309,77.684227,Housing Society,0,0
45990,Daadys Garden, Private Data,https://housing.com/in/buy/projects/page/209758-daadys-garden-by-daadys-builders-in-electronic-city, Private Data,,12.82434,77.691292,Housing Society,0,0
45735,RS RS Greenwoods, Private Data,https://housing.com/in/buy/projects/page/69114-rs-rs-greenwoods-by-rs-developers-in-bommasandra, Private Data,,12.82436752,77.68729401,Housing Society,0,0
45408,Residential Plot, Private Data,https://housing.com/in/buy/resale/page/4814335-residential-plot-in-vidyanagar-for-rs-2800000, Private Data,,12.824376,77.684124,Housing Society,0,0
45782,2 BHK Villa, Private Data,https://housing.com/in/buy/resale/page/4059273-2-bhk-villa-in-electronic-city-for-rs-8532400, Private Data,,12.824463,77.676564,Housing Society,0,0
46003,Swamiraj, Private Data,https://housing.com/in/buy/projects/page/69117-swamiraj-by-swaraj-homes-builders-developer-in-bommasandra, Private Data,,12.82446384,77.68640137,Housing Society,0,0
45935,Abode Breeze, Private Data,https://housing.com/in/buy/projects/page/5214-abode-breeze-by-abode-creation-in-electronic-city, Private Data,,12.825,77.691109,Housing Society,0,0
47652,Mayur Brundavan, Private Data,https://housing.com/in/buy/projects/page/132914-mayur-brundavan-by-reputed-builder-in-bommasandra, Private Data,,12.825024,77.7075,Housing Society,0,0
1519,"PRATAP INDUSTRIAL SUPPLIERS, B", Private Data,, Private Data,,12.8250926,77.6850383,Super Market,0,0
45618,2 BHK Villa, Private Data,https://housing.com/in/buy/resale/page/2809841-2-bhk-villa-in-electronic-city-for-rs-3890000, Private Data,,12.825132,77.66695,Housing Society,0,0
45744,Infrany Trinity, Private Data,https://housing.com/in/buy/projects/page/35823-infrany-trinity-by-infrany-ventures-in-bommasandra, Private Data,,12.8251543,77.6619873,Housing Society,0,0
47654,The Venetian Brundavan, Private Data,https://housing.com/in/buy/projects/page/30041-the-venetian-brundavan-by-the-venetian-group-in-bommasandra, Private Data,,12.825231,77.711353,Housing Society,0,0
45970,Nagalaya Apartment, Private Data,https://housing.com/in/buy/projects/page/66636-nagalaya-apartment-by-swaraj-homes-builders-developer-in-electronic-city, Private Data,,12.82540131,77.6789093,Housing Society,0,0
42317,Udaan Com, Private Data,, Private Data,,12.8255255,77.59743,Super Market,0,0
45630,KB Villas, Private Data,https://housing.com/in/buy/projects/page/167165-kb-villas-by-reputed-builder-in-rs-gardens, Private Data,,12.825567,77.685218,Housing Society,0,0
45663,RK KB Vilas Appartments, Private Data,https://housing.com/in/buy/projects/page/220526-rk-kb-vilas-appartments-by-rk-developers-in-rs-gardens, Private Data,,12.82556915,77.68522644,Housing Society,0,0
45783,Alliance Gardens Villas, Private Data,https://housing.com/in/buy/projects/page/205739-alliance-gardens-villas-by-alliance-group-mumbai-in-rs-gardens, Private Data,,12.82559204,77.6852417,Housing Society,0,0
27387,Sri Sri Tattva Panchamrut, Private Data,, Private Data,,12.8256965,77.5062868,Restaurant,0,0
5404,South Indian Bank ATM, Private Data,, Private Data,,12.8256993,77.6228764,ATM,0,0
45509,2 BHK Independent House, Private Data,https://housing.com/in/buy/resale/page/2535231-2-bhk-independent-house-in-electronic-city-for-rs-2350000, Private Data,,12.825802,77.661457,Housing Society,0,0
47628,Vs Nilaya, Private Data,https://housing.com/in/buy/projects/page/66635-vs-nilaya-by-swaraj-homes-builders-developer-in-electronic-city, Private Data,,12.826007,77.677063,Housing Society,0,0
45908,Metropolis Swastik, Private Data,https://housing.com/in/buy/projects/page/138299-metropolis-swastik-by-reputed-builder-in-hebbagodi, Private Data,,12.826422,77.675443,Housing Society,0,0
45447,3 BHK Apartment, Private Data,https://housing.com/in/buy/resale/page/4721480-3-bhk-apartment-in-electronic-city-for-rs-8000000, Private Data,,12.82644,77.678894,Housing Society,0,0
24295,Fast Pharmacy On Line Bangalore, Private Data,, Private Data,,12.82667,77.554933,Pharmacy,0,0
31796,L R Hotel, Private Data,, Private Data,,12.8267216,77.5867313,Restaurant,0,0
41485,Slv Provision Store, Private Data,, Private Data,,12.8267768,77.5608098,Super Market,0,0
45835,Daadys String, Private Data,https://housing.com/in/buy/projects/page/99751-daadys-string-by-daadys-builders-in-daadys-gaarden-layout, Private Data,,12.82678413,77.68943024,Housing Society,0,0
10157,Angana, Private Data,, Private Data,,12.826935,77.581765,Salon,0,0
45921,JMR Lotus, Private Data,https://housing.com/in/buy/projects/page/232551-jmr-lotus-by-jmr-developers-in-hebbagodi, Private Data,,12.82696533,77.68077087,Housing Society,0,0
