id,Name,Phone,Link,Address,Pincode,Latitude,Longitude,Type,Visited,Blacklisted
332,Begin With Us Tea Time Cafe,9895185971,https://www.justdial.com/Bangalore/Begin-With-Us-Tea-Time-Cafe/080PXX80-XX80-180630221642-T8E3_BZDET?xid=QmFuZ2Fsb3JlIEhzciBMYXlvdXQgS29yYW1hbmdhbGE=,"365361, 7th Block, Koramangala, Bengaluru, 1st Main Road, Bangalore - 560030",365361,12.295,76.64,Cafe,0,0
54032,Leba super market,,,"Leba super market , Hosur-Sarjapur Road Layout",,12.7148366,77.8410162,Super Market,0,0
1428,"AVIGNA ENTERPRISES(ATTIBELE),",,,"AVIGNA ENTERPRISES(ATTIBELE), BANGALORE",,12.7815259,77.7714241,Super Market,0,0
421,Hi Q Cafe,,https://www.justdial.com/Bangalore/Hi-Q-Cafe-Attibele/080PXX80-XX80-200207200107-N9I5_BZDET?xid=QmFuZ2Fsb3JlIENvZmZlZSBTaG9wcyBTYXJqYXB1cmE=,"Krishnapriya Complex, Nh44, Anekal , Urban, To Hosur Main Road, Attibele, Bangalore - 562107",562107,12.78284422,77.75644128,Cafe,0,0
437,Ashwini Tiffin Cafe,9035555049,https://www.justdial.com/Bangalore/Ashwini-Tiffin-Cafe-Attibele/080PXX80-XX80-200702005114-X6F2_BZDET?xid=QmFuZ2Fsb3JlIENvZmZlZSBTaG9wcyBTYXJqYXB1cmE=,"5, Anekal Road, Attibele, Bangalore - 562107",562107,12.78284422,77.75644128,Cafe,0,0
440,Hi Q Cafe,6366665797,https://www.justdial.com/Bangalore/Hi-Q-Cafe-Near-By-Lakshmi-Medicals-Attibele/080PXX80-XX80-190525195209-B5Y1_BZDET?xid=QmFuZ2Fsb3JlIENvZmZlZSBTaG9wcyBTYXJqYXB1cmE=,"Narayanappa Building, Sarjapura Main Road, Attibele, BANGALORE - 562107, Near By Lakshmi Medicals",562107,12.78284422,77.75644128,Cafe,0,0
465,ABCD - Anybody Can Dine,27819991,https://www.justdial.com/Bangalore/ABCD-Anybody-Can-Dine-Attibele/080PXX80-XX80-170524140221-G4F9_BZDET?xid=QmFuZ2Fsb3JlIENvZmZlZSBTaG9wcyBTYXJqYXB1cmE=,"1st Floor, Sri Mahadeshwaraswamy Complex, Yadavanahalli Attibele, Attibele, Bangalore - 562107",562107,12.78284422,77.75644128,Cafe,0,0
478,Amman Cafe Center & Bakery,9916650905,https://www.justdial.com/Bangalore/Amman-Cafe-Center-Bakery-Attibele/080PXX80-XX80-170928161136-W2N1_BZDET?xid=QmFuZ2Fsb3JlIENvZmZlZSBTaG9wcyBTYXJqYXB1cmE=,"Shop No. 01, Bangalore Main Road, Attibele, Bangalore - 562107",562107,12.78284422,77.75644128,Cafe,0,0
483,Bangalore Cafe,8904272095,https://www.justdial.com/Bangalore/Bangalore-Cafe-Attibele/080PXX80-XX80-180205213454-D7H5_BZDET?xid=QmFuZ2Fsb3JlIENvZmZlZSBTaG9wcyBTYXJqYXB1cmE=,"Attibele, Bangalore - 562107",562107,12.78284422,77.75644128,Cafe,0,0
489,Sanf Beli Coffee,27820593,https://www.justdial.com/Bangalore/Sanf-Beli-Coffee-Near-Hotel-Guest-Line-Attibele/080PK002580_BZDET?xid=QmFuZ2Fsb3JlIENvZmZlZSBTaG9wcyBTYXJqYXB1cmE=,"Sangeetha Complex, Industrial Area National Highway 7, Attibele, Bangalore - 562107, Near Hotel Guest Line",562107,12.78284422,77.75644128,Cafe,0,0
496,Cuppa,27819991,https://www.justdial.com/Bangalore/Cuppa-Beside-R-K-Garden-Family-Restaurant-La-Classic-Hotel-Near-Check-Post-Yadavanahalli/080PXX80-XX80-160305144532-Y2X5_BZDET?xid=QmFuZ2Fsb3JlIENvZmZlZSBTaG9wcyBTYXJqYXB1cmE=,"Sri Mahadeshwara Swamy Temple Complex, Shop No.7 &amp; 8, 1st Floor, 18th Mile, NH 7, Hosur Main Road, Attibele Hobli, Yadavanahalli, Bangalore - 562107, Beside R K Garden Family Restaurant &amp; La Classic Hotel, Near Check Post",562107,12.78284422,77.75644128,Cafe,0,0
497,Bollywood Grill,39100989,https://www.justdial.com/Bangalore/Bollywood-Grill-Oppiste-to-Applicomp-India-Limited-Attibele/080PXX80-XX80-150517132744-P4U9_BZDET?xid=QmFuZ2Fsb3JlIENvZmZlZSBTaG9wcyBTYXJqYXB1cmE=,"C/O La Classic Hotel, Yadavanahalli, Hosur Main Road, Attibele, Bangalore - 562107, Oppiste to Applicomp India Limited",562107,12.78284422,77.75644128,Cafe,0,0
523,Daas Cafe,9986990435,https://www.justdial.com/Bangalore/Daas-Cafe-Balagaranahalli/080PXX80-XX80-180626220219-L6F8_BZDET?xid=QmFuZ2Fsb3JlIENvZmZlZSBTaG9wcyBTYXJqYXB1cmE=,"Balagaranahalli, Bangalore - 562107",562107,12.78284422,77.75644128,Cafe,0,0
540,24 Hours Coffee Drop - La C..,39101100,https://www.justdial.com/Bangalore/24-Hours-Coffee-Drop-La-Classic-Near-Electronic-City-Attibele-Industrial-Area/080PXX80-XX80-161012113420-P1G4_BZDET?xid=QmFuZ2Fsb3JlIENvZmZlZSBTaG9wcyBTYXJqYXB1cmE=,"158, Hotel La Classic, Yedavanahalli, Attibele, Electronic City, Attibele Industrial Area, Bangalore - 562107, Near Electronic City",562107,12.78284422,77.75644128,Cafe,0,0
661,Victory Grand The Spa Beau..,7947161817,https://www.justdial.com/Bangalore/Victory-Grand-The-Spa-Beauty-Parlour-Corporation-Bank-Building-Attibele/080PXX80-XX80-171007180156-E6T2_BZDET?xid=QmFuZ2Fsb3JlIFNhbG9ucw==,"#31, Corporation Bank Building, Attibele Sarjapur Road, Attibele, Bangalore - 562107, Corporation Bank Building",562107,12.78284422,77.75644128,Salon,0,0
888,Natural ARTS,9481441321,https://www.justdial.com/Bangalore/Natural-ARTS-Near-Athithi-Grand-Attibele/080PXX80-XX80-170310184415-N2L4_BZDET?xid=QmFuZ2Fsb3JlIFNhbG9ucyBTYXJqYXB1cmE=,"#1050/A,2ND FLOOR,R.G.ARCADE,, SARJAPURA ROAD, Attibele, Bangalore - 562107, Near Athithi Grand",562107,12.78284422,77.75644128,Salon,0,0
1134,Trendz Mens Beauty Saloon,7338455117,https://www.justdial.com/Bangalore/Trendz-Mens-Beauty-Saloon-Opp-Celebrity-Square-Apartment-Bidaraguppe/080PXX80-XX80-180301132536-E5Z1_BZDET?xid=QmFuZ2Fsb3JlIFNhbG9ucyBTYXJqYXB1cmE=,"Shop No.03,, Bidaraguppe, Sarjapura-Attibele Main Road, Bidaraguppe, Bangalore - 562107, Opp. Celebrity Square Apartment",562107,12.78284422,77.75644128,Salon,0,0
1135,Bubbles,9113885920,https://www.justdial.com/Bangalore/Bubbles-Near-NR-Hospital-Attibele/080PXX80-XX80-191213162734-B5Z3_BZDET?xid=QmFuZ2Fsb3JlIFNhbG9ucyBTYXJqYXB1cmE=,"RK Towers, Hosur Road, Attibele, Bangalore - 562107, Near NR Hospital",562107,12.78284422,77.75644128,Salon,0,0
1139,Victory Grand The Spa Beau..,7947161817,https://www.justdial.com/Bangalore/Victory-Grand-The-Spa-Beauty-Parlour-Corporation-Bank-Building-Attibele/080PXX80-XX80-171007180156-E6T2_BZDET?xid=QmFuZ2Fsb3JlIFNhbG9ucyBTYXJqYXB1cmE=,"#31, Corporation Bank Building, Attibele Sarjapur Road, Attibele, Bangalore - 562107, Corporation Bank Building",562107,12.78284422,77.75644128,Salon,0,0
1145,Abbinaya Beauty Parlour,7337801178,https://www.justdial.com/Bangalore/Abbinaya-Beauty-Parlour-Near-Bye-Udupi-Hotel-Attibele/080PXX80-XX80-190123183959-J7A5_BZDET?xid=QmFuZ2Fsb3JlIFNhbG9ucyBTYXJqYXB1cmE=,"Narayanappa Building Anekal Road, Anekal Bus Stop Opposite Attibele, Attibele, Bangalore - 562107, Near Bye Udupi Hotel",562107,12.78284422,77.75644128,Salon,0,0
1147,The Gleeful,9731241016,https://www.justdial.com/Bangalore/The-Gleeful-Inside-Hotel-La-Classic-Yadavanahalli/080PXX80-XX80-170809104530-L8M4_BZDET?xid=QmFuZ2Fsb3JlIFNhbG9ucyBTYXJqYXB1cmE=,"#, Hosur Main Road ,Attebele, Yadavanahalli, Bangalore - 562107, Inside Hotel La Classic",562107,12.78284422,77.75644128,Salon,0,0
1150,Classic Mens Parlour,8762545371,https://www.justdial.com/Bangalore/Classic-Mens-Parlour-Opp-Bridge-Attibele/080PXX80-XX80-180307212926-T7M9_BZDET?xid=QmFuZ2Fsb3JlIFNhbG9ucyBTYXJqYXB1cmE=,"J.P Complex, Colony Road , Hosur Main Road, Attibele, Bangalore - 562107, Opp Bridge",562107,12.78284422,77.75644128,Salon,0,0
1151,Sri Someshwara Swamy Mens P..,9902594669,https://www.justdial.com/Bangalore/Sri-Someshwara-Swamy-Mens-Parlour-Near-Ashok-Leyland-Neralur/080PXX80-XX80-190419100254-X8K2_BZDET?xid=QmFuZ2Fsb3JlIFNhbG9ucyBTYXJqYXB1cmE=,"Rajappa Reddy Building, Sai Nagar, Neralur, Bangalore - 562107, Near Ashok Leyland",562107,12.78284422,77.75644128,Salon,0,0
1158,Star Lines Mens Saloon,9902503352,https://www.justdial.com/Bangalore/Star-Lines-Mens-Saloon-Bidaraguppe/080PXX80-XX80-170602172507-H2T7_BZDET?xid=QmFuZ2Fsb3JlIFNhbG9ucyBTYXJqYXB1cmE=,"Mallenahalli, Bidaraguppe, Bangalore - 562107",562107,12.78284422,77.75644128,Salon,0,0
1159,Nimisha Beauty Parlour,8495956473,https://www.justdial.com/Bangalore/Nimisha-Beauty-Parlour-Opp-keb-office-Attibele/080PXX80-XX80-160322141735-V2B9_BZDET?xid=QmFuZ2Fsb3JlIFNhbG9ucyBTYXJqYXB1cmE=,"1 st floor ,Pramila Building, Sarjapura main road,attibele, Attibele, Bangalore - 562107, Opp keb office",562107,12.78284422,77.75644128,Salon,0,0
1164,Naturals Attibele Or Natura..,7338028786,https://www.justdial.com/Bangalore/Naturals-Attibele-Or-Naturals-Unisex-Salon-Spa-Near-Suzuki-Showroom-Attibele/080PXX80-XX80-200522183724-E8T3_BZDET?xid=QmFuZ2Fsb3JlIFNhbG9ucyBTYXJqYXB1cmE=,"#8,9&amp;10, Bhuvan Complex, Hosur Main Road, NH7, Above Suzuki Showroom Near Sri Rangavilas Hotel Attib, Attibele, Bangalore - 562107, Near Suzuki Showroom",562107,12.78284422,77.75644128,Salon,0,0
1166,Olympic Gents Parlour,7795526589,https://www.justdial.com/Bangalore/Olympic-Gents-Parlour-Attibele/080PXX80-XX80-190411140919-I8Y3_BZDET?xid=QmFuZ2Fsb3JlIFNhbG9ucyBTYXJqYXB1cmE=,"#291, 4th Cross, Anekal Main Road, Attibele, Bangalore - 562107",562107,12.78284422,77.75644128,Salon,0,0
1167,Jagadish Hair Salon,9844218627,https://www.justdial.com/Bangalore/Jagadish-Hair-Salon-Bus-Stop-Bidaraguppe/080PXX80-XX80-170601230827-A7L9_BZDET?xid=QmFuZ2Fsb3JlIFNhbG9ucyBTYXJqYXB1cmE=,"Pahtrappa Complex, Shop No 3, Post Bus Stop, Attibele Ta, Bidaraguppe, Bangalore - 562107, Bus Stop",562107,12.78284422,77.75644128,Salon,0,0
1386,Treasure Tots Montessori Sc..,9342565565,https://www.justdial.com/Bangalore/Treasure-Tots-Montessori-School-Near-Indlabele-Bus-Stop-Attibele/080PXX80-XX80-190509113545-Z7U2_BZDET?xid=QmFuZ2Fsb3JlIFlvZ2EgQ2xhc3NlcyBTYXJqYXB1cmE=,"Site No.4, 1st Cross Attibele to Sarjapura Road, Attibele, Bangalore - 562107, Near Indlabele Bus Stop",562107,12.78284422,77.75644128,Yoga,0,0
1454,"FAMILY BIG MART HYPER MARKET,",,,"FAMILY BIG MART HYPER MARKET, BANGALORE",,12.7845285,77.7728652,Super Market,0,0
47655,LIG I,,https://housing.com/in/buy/projects/page/162560-lig-i-by-reputed-builder-in-bommasandra,"Anekal Main Road, Near Igglur Bus Stop, Suryanagar, Bangalore",,12.789185,77.702264,Housing Society,0,0
47702,KHB Township,,https://housing.com/in/buy/projects/page/149608-khb-township-by-reputed-builder-in-bommasandra,"Anekal road, Near S M S Marketing, Suryanagar, Bangalore",,12.79068565,77.70008087,Housing Society,0,0
47646,3 BHK Apartment,,https://housing.com/in/buy/resale/page/216593-3-bhk-apartment-in-suryanagar-for-rs-5000000,"Karnataka Housing Bord, Suryanagar, Bommasandra, Bangalore",,12.790866,77.699313,Housing Society,0,0
47633,Century 22 Kabini,,https://housing.com/in/buy/projects/page/32891-century-22-kabini-by-century22-in-bommasandra,"Off Anekal Main Road, NeatSuryanagar KHB Township, Bangalore",,12.79094,77.697597,Housing Society,0,0
628,Anand Salon & Spa,7947161937,https://www.justdial.com/Bangalore/Anand-Salon-Spa-Near-Apc-Circle-Jigani/080PXX80-XX80-171116145838-P7B8_BZDET?xid=QmFuZ2Fsb3JlIFNhbG9ucw==,"CA 4/3, Jigani Industrial Area, Jigani, Bangalore - 560105, Near Apc Circle",560105,12.79108393,77.63550667,Salon,0,0
47638,Aashrithaa Vivanta Residence,,https://housing.com/in/buy/projects/page/79352-aashrithaa-vivanta-residence-by-aashritha-properties-pvt-ltd-in-iggalur,"KHB-Surya City, Chandapura, Near Electronic City,Bangalore, Bangalore",,12.79110718,77.70326233,Housing Society,0,0
47676,2 BHK Villa,,https://housing.com/in/buy/resale/page/4819562-2-bhk-villa-in-bommasandra-for-rs-3960000,"Annciya Royal Nakshatra , Suryanagar, Bommasandra, Bangalore",,12.792635,77.699132,Housing Society,0,0
47624,Nisarga Sarovara,,https://housing.com/in/buy/projects/page/44793-nisarga-sarovara-by-nisarga-group-in-bommasandra,"Near Electronic City, Chandapura, Inside Surya City 1st phase, 100ft. Road, Bommasandra, Bangalore, Bangalore",,12.79271221,77.69314575,Housing Society,0,0
47668,MDS Sai Sowparnika,,https://housing.com/in/buy/projects/page/100054-mds-sai-sowparnika-by-mds-projects-in-bommasandra,"Suryanagar, Near Chandapura, Bangalore South, Bangalore, Bangalore",,12.79325008,77.69468689,Housing Society,0,0
48087,Nigama SVD Garden,,https://housing.com/in/buy/projects/page/205803-nigama-svd-garden-by-nigama-properties-in-chandapura,"Chandapura, Bangalore South, Bangalore",,12.79342842,77.7067337,Housing Society,0,0
47601,3 BHK Independent House,,https://housing.com/in/buy/resale/page/3589084-3-bhk-independent-house-in-bommasandra-for-rs-9000000,"Suryanagar, Bommasandra, Bangalore",,12.794424,77.702282,Housing Society,0,0
47598,Residential Plot,,https://housing.com/in/buy/resale/page/4939250-residential-plot-in-bommasandra-for-rs-2460000,"Suryanagar, Bommasandra, Bangalore",,12.794811,77.700205,Housing Society,0,0
47653,Synergyone Woods Ville,,https://housing.com/in/buy/projects/page/218951-synergyone-woods-ville-by-synergyone-in-iggalur,"Attibele-Ankeal Main Road Bangalore, Bangalore",,12.79492569,77.70578003,Housing Society,0,0
47627,KHB Surya City,,https://housing.com/in/buy/projects/page/136841-khb-surya-city-by-reputed-builder-in-bommasandra,"2nd Cross Road, Near Union Bank, Suryanagar Phase I, Bangalore",,12.795008,77.700919,Housing Society,0,0
48073,ESCON Elite Garden,,https://housing.com/in/buy/projects/page/220888-escon-elite-garden-by-escon-developers-in-chandapura,"Chandapura - Anekal Main Road, Bangalore, Bangalore",,12.79526329,77.70671082,Housing Society,0,0
47597,Golden Golden Era Samrudhi Homes,,https://housing.com/in/buy/projects/page/74305-golden-golden-era-samrudhi-homes-by-golden-era-property-in-bommasandra,"Jigani Anekal Main Road, Bangalore, Bangalore",,12.7955637,77.70378876,Housing Society,0,0
480,Cafe Kalifo,7012730382,https://www.justdial.com/Bangalore/Cafe-Kalifo/080PXX80-XX80-190716221856-J6I9_BZDET?xid=QmFuZ2Fsb3JlIENvZmZlZSBTaG9wcyBTYXJqYXB1cmE=,"2nd Stage, Madiwala, Brindavan Nagar, S.G. Palya, Bengaluru, Tavarekere Main Road, Bangalore - 560081",560081,12.7956429,77.70682255,Cafe,0,0
643,Crown Spa and Health Care,7947161872,https://www.justdial.com/Bangalore/Crown-Spa-and-Health-Care-Near-Keerthana-International-Hotel-Chandapura/080PXX80-XX80-171027100606-M8W6_BZDET?xid=QmFuZ2Fsb3JlIFNhbG9ucw==,"No.102 &amp; 104, Hosur Main Road, Chandapura, Bangalore - 560081, Near Keerthana International Hotel",560081,12.7956429,77.70682255,Salon,0,0
810,Naturals Unisex Salon & Spa,27835628,https://www.justdial.com/Bangalore/Naturals-Unisex-Salon-Spa-Opposite-to-Big-Market-Chandapura/080PXX80-XX80-170113004149-C3D4_BZDET?xid=QmFuZ2Fsb3JlIFNhbG9ucyBTYXJqYXB1cmE=,"No.7,8 &amp; 9, Pilla Reddy Building, Pilla Reddy Layout, Anekal Main Road, Chandapura, Bangalore - 560081, Opposite to Big Market",560081,12.7956429,77.70682255,Salon,0,0
1110,Crown Spa and Health Care,7947161872,https://www.justdial.com/Bangalore/Crown-Spa-and-Health-Care-Near-Keerthana-International-Hotel-Chandapura/080PXX80-XX80-171027100606-M8W6_BZDET?xid=QmFuZ2Fsb3JlIFNhbG9ucyBTYXJqYXB1cmE=,"No.102 &amp; 104, Hosur Main Road, Chandapura, Bangalore - 560081, Near Keerthana International Hotel",560081,12.7956429,77.70682255,Salon,0,0
47615,PNR Kapilavastu,,https://housing.com/in/buy/projects/page/91139-pnr-kapilavastu-by-pnr-infra-india-pvt-ltd-in-bommasandra,"Bommasandra, Bangalore South, Bangalore",,12.79615784,77.68862915,Housing Society,0,0
47611,2 BHK Apartment,,https://housing.com/in/buy/resale/page/5140187-2-bhk-apartment-in-bommasandra-for-rs-3500000,"Suryanagar, Bommasandra, Bangalore",,12.796338,77.700945,Housing Society,0,0
47669,4 BHK Villa,,https://housing.com/in/buy/resale/page/4412065-4-bhk-villa-in-bommasandra-for-rs-10230000,"Suryanagar, Bommasandra, Bangalore",,12.79637,77.703024,Housing Society,0,0
47691,Sarada Casa Estrella,,https://housing.com/in/buy/projects/page/37438-sarada-casa-estrella-by-ma-sarada-constructions-in-bommasandra,"On Hosur Road, Behind Narayana Hrudayalaya, Wessex Layout, Kachanayakanahalli, Jigani Hobli, Anekal Taluk, Bangalore, Bangalore",,12.79643154,77.68638611,Housing Society,0,0
1576,"MBT TRADERS,",,,"MBT TRADERS, BANGALORE",,12.7966277,77.7063427,Super Market,0,0
48094,Vintage Vintage Gardenia,,https://housing.com/in/buy/projects/page/58641-vintage-vintage-gardenia-by-vintage-shelters-in-chandapura,"Chandapura, Bangalore, Bangalore",,12.79671955,77.70700073,Housing Society,0,0
47629,2 BHK Independent Floor,,https://housing.com/in/buy/resale/page/4066660-2-bhk-independent-floor-in-bommasandra-for-rs-2640000,"Suryanagar, Bommasandra, Bangalore",,12.796824,77.706024,Housing Society,0,0
47640,Residential Plot,,https://housing.com/in/buy/resale/page/4463467-residential-plot-in-bommasandra-for-rs-600000,"Anekal hosur, Suryanagar, Bommasandra, Bangalore",,12.796824,77.706024,Housing Society,0,0
48089,GR Excel Prime,,https://housing.com/in/buy/projects/page/146985-gr-excel-prime-by-gr-excel-prime-properties-in-chandapura,"Chandapura, Anekal Main Road, Bangalore",,12.79709816,77.71109009,Housing Society,0,0
47626,Leland Orchid,,https://housing.com/in/buy/projects/page/99833-leland-orchid-by-leland-holding-pvt-ltd-in-bommasandra,"Rajapura, Bangalore., Bangalore",,12.79719639,77.7047348,Housing Society,0,0
48085,Dreamz Savinaya,,https://housing.com/in/buy/projects/page/67934-dreamz-savinaya-by-dreamz-infra-india-in-chandapura,"Chandapura, Bangalore South, Bangalore",,12.79726791,77.7098465,Housing Society,0,0
48072,3 BHK Villa,,https://housing.com/in/buy/resale/page/4327584-3-bhk-villa-in-chandapura-for-rs-8562300,"Terracon Doctors Enclave, Chandapura, Bangalore",,12.797337,77.711492,Housing Society,0,0
47672,4 BHK Villa,,https://housing.com/in/buy/resale/page/4399091-4-bhk-villa-in-bommasandra-for-rs-11230000,"Omkar Nagar, Bommasandra, Bangalore",,12.797375,77.697188,Housing Society,0,0
48105,Ashni Bhavan,,https://housing.com/in/buy/projects/page/138356-ashni-bhavan-by-reputed-builder-in-chandapura,"Anekal Main Road, Near St Phelomena School, Venkateshappa Layout, Bangalore",,12.797432,77.70784,Housing Society,0,0
48101,ESCON Surya Enclave,,https://housing.com/in/buy/projects/page/220890-escon-surya-enclave-by-escon-developers-in-chandapura,"Chandapura, Near Electronic City, Bangalore, Bangalore",,12.79754925,77.70737457,Housing Society,0,0
48110,Gravity Icon,,https://housing.com/in/buy/projects/page/44443-gravity-icon-by-gravity-properties-in-chandapura,"Off Chandapura-Anekal Road, Near De Sales Academy, Chandapura, Bangalore",,12.797824,77.711288,Housing Society,0,0
48102,Associate Castle Town,,https://housing.com/in/buy/projects/page/48468-associate-castle-town-by-associate-dwellings-in-hennagara,"Chandapura - Anekal Road, Near Surya City Phase 2, Near KHP Phase 2, Hennagara, Bangalore",,12.797965,77.706464,Housing Society,0,0
47632,Karsten Sai Palms,,https://housing.com/in/buy/projects/page/210806-karsten-sai-palms-by-karsten-in-bommasandra,"Chandapura, Bangalore, Bangalore",,12.79850197,77.7049408,Housing Society,0,0
47630,Residential Plot,,https://housing.com/in/buy/resale/page/5130181-residential-plot-in-bommasandra-for-rs-3080000,"Arka Iris Grand, Kachanayakanahalli, Bommasandra, Bangalore",,12.798661,77.685646,Housing Society,0,0
47695,L Vijayalakshmi Arka Iris Grand,,https://housing.com/in/buy/projects/page/171755-l-vijayalakshmi-arka-iris-grand-by-l-vijayalakshmi-in-bommasandra,"Sy.no.13/4, H Hosahalli, Hennagara Main road, Jigani Hobli, Anekal Taluk, Bangalore, Bangalore",,12.79866123,77.68564606,Housing Society,0,0
47699,Surendra Babu P Balaji Elite,,https://housing.com/in/buy/projects/page/146987-surendra-babu-p-balaji-elite-by-surendra-babu-p-in-bommasandra,"Sy No.81 Kachanayakanahalli Village, Jigani Hobli, Boomsandara, Bangalore",,12.7988863,77.68112946,Housing Society,0,0
48092,Maxworth Max Srinidhi Sacred Springs,,https://housing.com/in/buy/projects/page/67941-maxworth-max-srinidhi-sacred-springs-by-swaraj-homes-builders-developer-in-chandapura,"Chandapura, Bangalore South, Bangalore",,12.79910469,77.71218109,Housing Society,0,0
48098,Prasanthi Prashanti Central,,https://housing.com/in/buy/projects/page/68236-prasanthi-prashanti-central-by-prasanthi-group-in-chandapura,"Soppahalli, Bangalore South, Bangalore",,12.79921341,77.7115097,Housing Society,0,0
47651,Sree Sree Shine,,https://housing.com/in/buy/projects/page/11459-sree-sree-shine-by-sri-vishnu-ventures-in-bommasandra,"Bommasandra, Bangalore, Bangalore",,12.7992363,77.7026062,Housing Society,0,0
48103,Srinivasa Layout,,https://housing.com/in/buy/projects/page/67938-srinivasa-layout-by-pravahya-infratech-in-chandapura,"Chandapura, Bangalore South, Bangalore",,12.79940987,77.71109009,Housing Society,0,0
47618,AMR Oaks,,https://housing.com/in/buy/projects/page/16868-amr-oaks-by-amr-housing-development-corporation-in-chandapura,"Sy. No. 129/1 Surya City Phase-1, Near Chandapura Circle, Hosur Main Road, Bangalore, Bangalore",,12.79958153,77.70245361,Housing Society,0,0
48107,Living Ananda Nilaya,,https://housing.com/in/buy/projects/page/205780-living-ananda-nilaya-by-living-space-developers-in-chandapura,"Chandapura, Bangalore South, Bangalore",,12.79960728,77.7134552,Housing Society,0,0
48083,Amoda Springs Phase 2,,https://housing.com/in/buy/projects/page/205751-amoda-springs-phase-2-by-amoda-properties-in-chandapura,"Chandapura, Bangalore South, Bangalore",,12.79961395,77.71357727,Housing Society,0,0
47665,4 BHK Independent House,,https://housing.com/in/buy/resale/page/3144477-4-bhk-independent-house-in-bommasandra-for-rs-8600000,"Grand Icon, Kachanayakanahalli, Bommasandra, Bangalore",,12.799691,77.680885,Housing Society,0,0
47631,Icon Grand Icon,,https://housing.com/in/buy/projects/page/60425-icon-grand-icon-by-icon-homz-in-bommasandra,"Bommasandra, Bangalore, Bangalore",,12.7996912,77.68088531,Housing Society,0,0
47694,Icon Honey Pool,,https://housing.com/in/buy/projects/page/162246-icon-honey-pool-by-reputed-builder-in-bommasandra,"Hennagara Main Road, Near Government Primary School, Kachansyakanahalli, Bangalore",,12.799778,77.682877,Housing Society,0,0
48080,Novel Novel Eco,,https://housing.com/in/buy/projects/page/219866-novel-novel-eco-by-novel-nests-in-chandapura,"BTM Layout, Bangalore, Bangalore",,12.79982185,77.71006012,Housing Society,0,0
48082,Best Green Grove,,https://housing.com/in/buy/projects/page/208692-best-green-grove-by-best-properties-in-chandapura,"Chandapura, Bangalore South, Bangalore",,12.79988194,77.71114349,Housing Society,0,0
48075,Wood Ridge Pride,,https://housing.com/in/buy/projects/page/248263-wood-ridge-pride-by-wood-ridge-developers-in-chandapura,"Chandapura, Bangalore South, Bangalore",,12.80001354,77.71327972,Housing Society,0,0
48070,Eden Gardens,,https://housing.com/in/buy/projects/page/205771-eden-gardens-by-mrs-developers-in-chandapura,"Chandapura, Bangalore South, Bangalore",,12.80018616,77.71331787,Housing Society,0,0
48093,Park Golden Aura Apartment,,https://housing.com/in/buy/projects/page/154115-park-golden-aura-apartment-by-park-synergy-enterprises-in-chandapura,"Thadicombu Road, Near De Sales Academy, Terracon Doctors Enclave, Bangalore",,12.800274,77.712162,Housing Society,0,0
45989,Provident Woodfield,,https://housing.com/in/buy/projects/page/231592-provident-woodfield-by-provident-housing-limited-in-bommasandra,"Sy No 36/1, 36/2, 37/1 to 5, 39/2, 40/1 to 4, 41/1, 43, 44/1 to 2, 45, 48, 49, 50, 64, 65, Kachanayakanahalli Village, Jigani, Bangalore",,12.80031776,77.6855545,Housing Society,0,0
48081,3 BHK Apartment,,https://housing.com/in/buy/resale/page/4746271-3-bhk-apartment-in-chandapura-for-rs-3900000,"VBHC Vaibhava, Teachers Colony, Chandapura, Bangalore",,12.800335,77.705526,Housing Society,0,0
48108,Annciya Padmavathi Layout,,https://housing.com/in/buy/projects/page/67936-annciya-padmavathi-layout-by-annciya-estates-in-chandapura,"Chandapura, Bangalore South, Bangalore",,12.8004694,77.71386719,Housing Society,0,0
47612,5 BHK Independent House,,https://housing.com/in/buy/resale/page/3628126-5-bhk-independent-house-in-bommasandra-for-rs-9500000,"Suryanagar, Bommasandra, Bangalore",,12.800579,77.70222,Housing Society,0,0
47666,Sriven Daksha Elite,,https://housing.com/in/buy/projects/page/233342-sriven-daksha-elite-by-sriven-properties-in-bommasandra,"Sy No 134, Vp Khata No 578/134 Of Kachanayakanahalli Village, Jigani, Bangalore",,12.80065155,77.68544769,Housing Society,0,0
47677,Vintage Green Woods,,https://housing.com/in/buy/projects/page/100221-vintage-green-woods-by-vintage-shelters-in-bommasandra,"Behind Narayana Hrudalaya Hospital, Off Hosur Road, Bangalore, Bangalore",,12.80067539,77.69252014,Housing Society,0,0
48104,Inest Peninsula Plot,,https://housing.com/in/buy/projects/page/67939-inest-peninsula-plot-by-swaraj-homes-builders-developer-in-chandapura,"Chandapura, Bangalore South, Bangalore",,12.80072021,77.71125031,Housing Society,0,0
48088,Jaithra Towers,,https://housing.com/in/buy/projects/page/222409-jaithra-towers-by-jaithra-projects-in-chandapura,"Anekal Main Road, Terracon Residency, Suryanagar, Chandapura, Bangalore, Bangalore",,12.80081558,77.70661163,Housing Society,0,0
48084,MBT Chandapura Residency,,https://housing.com/in/buy/projects/page/173058-mbt-chandapura-residency-by-reputed-builder-in-chandapura,"Chandapura Anekal Road, Near Canara Bank, Teachers Colony, Bangalore",,12.800827,77.706087,Housing Society,0,0
48071,3 BHK Apartment,,https://housing.com/in/buy/resale/page/4431343-3-bhk-apartment-in-chandapura-for-rs-3800000,"Abhee Nandika, Terracon Doctors Enclave, Chandapura, Bangalore",,12.800892,77.711166,Housing Society,0,0
48079,Balaji S And S Delight,,https://housing.com/in/buy/projects/page/42620-balaji-s-and-s-delight-by-sri-balaji-builders-in-chandapura,"Chandapura, Bangalore South, Bangalore",,12.80092525,77.71453094,Housing Society,0,0
48077,Valdis V4 Camelia,,https://housing.com/in/buy/projects/page/47873-valdis-v4-camelia-by-valdis-group-in-chandapura,"Off Lakshmisagara Road, Near Majestic Polymers, Chandapura, Bangalore",,12.800992,77.714674,Housing Society,0,0
48106,Kritan Surya City Phase 2,,https://housing.com/in/buy/projects/page/67933-kritan-surya-city-phase-2-by-kritan-urbane-living-in-chandapura,"Chandapura, Bangalore South, Bangalore",,12.80106354,77.71379852,Housing Society,0,0
48076,Residential Plot,,https://housing.com/in/buy/resale/page/4954350-residential-plot-in-chandapura-for-rs-2400000,"Kritan Surya City Phase 2, Biotech Park, Chandapura, Bangalore",,12.801064,77.713799,Housing Society,0,0
47610,2 BHK Apartment,,https://housing.com/in/buy/resale/page/2835167-2-bhk-apartment-in-bommasandra-for-rs-3735000,"RK Township, Bommasandra, Bangalore",,12.801067,77.670268,Housing Society,0,0
47685,Daadys Dollar Town,,https://housing.com/in/buy/projects/page/68014-daadys-dollar-town-by-daadys-builders-in-bommasandra,"Hosur Main Road, Bangalore., Bangalore",,12.80120087,77.69602966,Housing Society,0,0
47645,Sri Sri Amruta Varshini,,https://housing.com/in/buy/projects/page/36525-sri-sri-amruta-varshini-by-sri-sri-construction-in-bommasandra,"Hosur Road, Suryanagar Phase III, Near Jain Temple, Bangalore",,12.801631,77.702341,Housing Society,0,0
48099,Terracon Terracon Grande,,https://housing.com/in/buy/projects/page/219046-terracon-terracon-grande-by-terracon-projects-pvy-ltd-in-chandapura,"Hosur Main Road, Bangalore, Bangalore",,12.80175781,77.71445465,Housing Society,0,0
47683,Lakeview Golden Nest,,https://housing.com/in/buy/projects/page/27258-lakeview-golden-nest-by-reputed-builder-in-chandapura,"Electronic City,Chandapura, Bangalore, Bangalore",,12.80175781,77.71470642,Housing Society,0,0
48091,Balaji Complex,,https://housing.com/in/buy/projects/page/167198-balaji-complex-by-reputed-builder-in-chandapura,"Dharmapuri - Bengaluru Road, Near Karur Vysya Bank, Teachers Colony, Bangalore",,12.801848,77.705283,Housing Society,0,0
47703,Anish Triangle Garden City,,https://housing.com/in/buy/projects/page/58645-anish-triangle-garden-city-by-anish-projects-builders-in-bommasandra,"Chandapura, Bangalore, Bangalore",,12.80185699,77.70407867,Housing Society,0,0
47613,MVS Orchid,,https://housing.com/in/buy/projects/page/32152-mvs-orchid-by-mvs-builders-in-bommasandra,"Anekal, Bangalore, Bangalore",,12.80187607,77.70455933,Housing Society,0,0
47687,Icon Iconest 3,,https://housing.com/in/buy/projects/page/128284-icon-iconest-3-by-icon-homz-in-bommasandra,"Behind Narayana Hrudayalaya, Bangalore",,12.80196667,77.67934418,Housing Society,0,0
47599,2 BHK Apartment,,https://housing.com/in/buy/resale/page/4859804-2-bhk-apartment-in-bommasandra-for-rs-3250000,"Iconest 3, RK Township, Bommasandra, Bangalore",,12.801967,77.679344,Housing Society,0,0
48096,Aston Bell Spring,,https://housing.com/in/buy/projects/page/217976-aston-bell-spring-by-dasha-in-chandapura,"Chandapura, Bangalore South, Bangalore",,12.80204105,77.71260071,Housing Society,0,0
48100,Phoenix Satkeerti Symphony,,https://housing.com/in/buy/projects/page/217752-phoenix-satkeerti-symphony-by-phoenix-infrastructure-in-chandapura,"Chandapura, Bangalore South, Bangalore",,12.80208969,77.71515656,Housing Society,0,0
48074,2 BHK Independent House,,https://housing.com/in/buy/resale/page/3908198-2-bhk-independent-house-in-chandapura-for-rs-5800000,"Biotech Park, Chandapura, Bangalore",,12.802129,77.715026,Housing Society,0,0
48095,Subbamma,,https://housing.com/in/buy/projects/page/167185-subbamma-by-reputed-builder-in-chandapura,"National Highway 7, Near Hale Chandapura Bus Stop, Biotech Park, Bangalore",,12.80223,77.711336,Housing Society,0,0
47606,Magnum Elegancy,,https://housing.com/in/buy/projects/page/220877-magnum-elegancy-by-magnum-developers-in-bommasandra,"Hosur Main Road, Bangalore, Bangalore",,12.80251598,77.68947601,Housing Society,0,0
47649,Vintage Flora,,https://housing.com/in/buy/projects/page/205906-vintage-flora-by-vintage-shelters-in-bommasandra,"Chandapura, Bangalore South, Bangalore",,12.80255985,77.70440674,Housing Society,0,0
47623,Neesarga Keerthana,,https://housing.com/in/buy/projects/page/151373-neesarga-keerthana-by-reputed-builder-in-bommasandra,"Hosur Main Road, Near Spersh Hospital, Suryanagar, Bangalore",,12.802688,77.700741,Housing Society,0,0
47617,Nisarga Gateway,,https://housing.com/in/buy/projects/page/167174-nisarga-gateway-by-reputed-builder-in-bommasandra,"Kodambakkam - Mumbai Highway, Near Hotel Keerthana International, Keerthi Layout, Bangalore",,12.802692,77.701175,Housing Society,0,0
48086,Vaibhava Vasantha,,https://housing.com/in/buy/projects/page/67940-vaibhava-vasantha-by-swaraj-homes-builders-developer-in-chandapura,"Chandapura, Bangalore South, Bangalore",,12.80285263,77.71588898,Housing Society,0,0
47659,Ashraya Sri Sai Nagara,,https://housing.com/in/buy/projects/page/249825-ashraya-sri-sai-nagara-by-ashraya-group-bangalore-in-bommasandra,"Bommasandra, Bangalore South, Bangalore",,12.80298996,77.68492889,Housing Society,0,0
48090,VDB BR Valley Park,,https://housing.com/in/buy/projects/page/248270-vdb-br-valley-park-by-vdb-infra-realty-pvt-ltd-in-chandapura,"Chandapura, Bangalore South, Bangalore",,12.80308342,77.71564484,Housing Society,0,0
48078,Aashrithaa Sai Priya Residency,,https://housing.com/in/buy/projects/page/248259-aashrithaa-sai-priya-residency-by-aashritha-properties-pvt-ltd-in-chandapura,"Chandapura, Bangalore South, Bangalore",,12.80335617,77.717453,Housing Society,0,0
45883,Avhni Abode Gomati Iris,,https://housing.com/in/buy/projects/page/41541-avhni-abode-gomati-iris-by-avhni-abode-in-electronic-city,"Kyasama Halli , Bommasandra , Inside RKTownship, Bangalore",,12.803357,77.671442,Housing Society,0,0
47616,2 BHK Independent House,,https://housing.com/in/buy/resale/page/4055480-2-bhk-independent-house-in-bommasandra-for-rs-3500000,"RK Township, Bommasandra, Bangalore",,12.803417,77.671527,Housing Society,0,0
47682,2 BHK Independent House,,https://housing.com/in/buy/resale/page/2513524-2-bhk-independent-house-in-bommasandra-for-rs-2300000,"Greenzone villa plots , RK Township, Bommasandra, Bangalore",,12.803609,77.666491,Housing Society,0,0
47667,Shabari SS South Crest,,https://housing.com/in/buy/projects/page/23609-shabari-ss-south-crest-by-shri-shabari-infrastructures-in-bommasandra,"Bommasandra, Near Electronic City, Bangalore",,12.80366421,77.6657486,Housing Society,0,0
48111,Prabhavathi Royal City,,https://housing.com/in/buy/projects/page/90813-prabhavathi-royal-city-by-prabhavathi-builders-developers-pvt-ltd-in-chandapura,"Chandapura, Bangalore South, Bangalore",,12.80391312,77.71518707,Housing Society,0,0
47674,Kataria Residency,,https://housing.com/in/buy/projects/page/5317-kataria-residency-by-kataria-builteck-pvt-ltd-in-bommasandra,"Bommasandra, Near Electronics City, Bangalore, Bommasandra",,12.804291,77.674728,Housing Society,0,0
47664,K B Paradise,,https://housing.com/in/buy/projects/page/155149-k-b-paradise-by-reputed-builder-in-bommasandra,"11th Cross Street, Near Park 5, Bommasandra, Bangalore",,12.804342,77.674745,Housing Society,0,0
47688,Kataria Paradise,,https://housing.com/in/buy/projects/page/6541-kataria-paradise-by-kataria-builteck-pvt-ltd-in-yarandahalli,"R. K. Township, Near Hosur, Yarandahalli, Bangalore",,12.804345,77.6747,Housing Society,0,0
45673,Sriven Rag Meridian,,https://housing.com/in/buy/projects/page/127604-sriven-rag-meridian-by-sriven-properties-in-electronic-city,"Hosur Main Road Behind Narayana Hrudayalaya, Electronic City, Bommasandra, Bommasandra",,12.80485,77.685654,Housing Society,0,0
45565,Siri Sbm Residency,,https://housing.com/in/buy/projects/page/41814-siri-sbm-residency-by-siri-homes-in-electronic-city,"Hosur Main Road, Electronics City, Bangalore, Electronic City",,12.804907,77.697449,Housing Society,0,0
48097,S2 Homes Mystic Woods,,https://housing.com/in/buy/projects/page/44435-s2-homes-mystic-woods-by-s2-homes-in-chandapura,"Off Lakshmisagara Road, Near Nazareth School, Chandapura, Bangalore",,12.805051,77.715584,Housing Society,0,0
47614,RK Atulya,,https://housing.com/in/buy/projects/page/220558-rk-atulya-by-rk-developers-in-bommasandra,"Bommasandra, Bangalore., Bangalore",,12.80516338,77.67201233,Housing Society,0,0
47670,Atulya Apartment,,https://housing.com/in/buy/projects/page/154100-atulya-apartment-by-reputed-builder-in-bommasandra,"7th Cross Road, Near Yarandahalli Bus Stop, R K Township, Bangalore",,12.805189,77.67204,Housing Society,0,0
15742,Vasavi Provision Stores,,,"Bannerughatta,Bengaluru, Karnataka 560083",,12.8052456,77.5787804,Grocery,0,0
47663,TCH Studio Suites 9,,https://housing.com/in/buy/projects/page/39647-tch-studio-suites-9-by-tch-in-bommasandra,"Near Kachanayakanhalli Lake, Off Hosur Road, Bommasandra, Bangalore",,12.805249,77.677115,Housing Society,0,0
10567,Beauty Parlour,,,"Malenallasandra,Bengaluru, Karnataka 560083",,12.8055714,77.6047649,Salon,0,0
47595,3 BHK Apartment,,https://housing.com/in/buy/resale/page/2042229-3-bhk-apartment-in-bommasandra-for-rs-5000000,"Rk township bangalore , Bommasandra Industrial Area, Bommasandra, Bangalore",,12.805637,77.662074,Housing Society,0,0
47684,Comfort Residency,,https://housing.com/in/buy/projects/page/183737-comfort-residency-by-elite-properties-in-bommasandra,"8th Cross Road , Near Rk Township Park, Bommasandra, Bangalore",,12.80567,77.673445,Housing Society,0,0
47697,9 BHK Independent Floor,,https://housing.com/in/buy/resale/page/3082723-9-bhk-independent-floor-in-bommasandra-for-rs-18500000,"RK Township, Bommasandra, Bangalore",,12.805705,77.672226,Housing Society,0,0
47604,Southern Springs Apartments,,https://housing.com/in/buy/projects/page/132205-southern-springs-apartments-by-reputed-builder-in-bommasandra,"7th Cross Street, Near Gokul Kutteer, R K township, Bangalore",,12.805762,77.671999,Housing Society,0,0
48109,Hyde Park,,https://housing.com/in/buy/projects/page/206656-hyde-park-by-excel-dwellings-india-in-chandapura,"Chandapura, Bangalore South, Bangalore",,12.80584621,77.71179962,Housing Society,0,0
47634,2 BHK Apartment,,https://housing.com/in/buy/resale/page/5073237-2-bhk-apartment-in-bommasandra-for-rs-3250000,"K B residency, Bommasandra Industrial Area, Bommasandra, Bangalore",,12.805861,77.698639,Housing Society,0,0
47689,Sai Suraj,,https://housing.com/in/buy/projects/page/162960-sai-suraj-by-reputed-builder-in-bommasandra,"12th Cross Road, Near Park 1, RK Township, Yarandahalli, Bangalore",,12.806034,77.671377,Housing Society,0,0
47680,Sri Sai Pruthvi Residency,,https://housing.com/in/buy/projects/page/160592-sri-sai-pruthvi-residency-by-reputed-builder-in-bommasandra,"7th Cross Street, Near Park 7 RK Township, Bommasandra, Bangalore",,12.806064,77.672487,Housing Society,0,0
47622,Vijayas Vaibhav,,https://housing.com/in/buy/projects/page/131264-vijayas-vaibhav-by-reputed-builder-in-bommasandra,"12th Cross Road, Near Yarandahalli Bus Stop, RK Township Yarandahalli, Bangalore",,12.806148,77.675174,Housing Society,0,0
47696,2 BHK Villa,,https://housing.com/in/buy/resale/page/4951018-2-bhk-villa-in-bommasandra-for-rs-3925000,"Prakruthi Enclave, Bommasandra Industrial Area, Bommasandra, Bangalore",,12.806445,77.662697,Housing Society,0,0
47678,2 BHK Independent House,,https://housing.com/in/buy/resale/page/4068414-2-bhk-independent-house-in-bommasandra-for-rs-3500000,"RK Township, Bommasandra, Bangalore",,12.806564,77.678542,Housing Society,0,0
45857,Keystone Balaji Elite,,https://housing.com/in/buy/projects/page/35501-keystone-balaji-elite-by-keystone-properties-in-electronic-city,"Off Hosur Road, Bommasandra, Bangalore, Bangalore",,12.806629,77.696579,Housing Society,0,0
47647,Devi Residency,,https://housing.com/in/buy/projects/page/38236-devi-residency-by-devi-constructions-in-bommasandra,"93, Devi Residency, 2nd Cross, R K Towmship, Yarandahalli, Bommasandra, Bangalore - 99, Bangalore",,12.806746,77.671469,Housing Society,0,0
47644,Residential Plot,,https://housing.com/in/buy/resale/page/3899220-residential-plot-in-bommasandra-for-rs-5500000,"Magnum R K Township, RK Township, Bommasandra, Bangalore",,12.806947,77.672813,Housing Society,0,0
47625,IT Villa Pavilion,,https://housing.com/in/buy/projects/page/219659-it-villa-pavilion-by-it-estates-in-bommasandra,"Bommasandra, Bangalore, Bangalore",,12.80701828,77.6701889,Housing Society,0,0
45445,Prasiddhi Cloud 9,,https://housing.com/in/buy/projects/page/4225-prasiddhi-cloud-9-by-prasiddhi-group-in-electronic-city,"Bommasandra, Bangalore, Electronic City",,12.807083,77.687218,Housing Society,0,0
47637,Icon Honey Pool,,https://housing.com/in/buy/projects/page/219250-icon-honey-pool-by-icon-homz-in-bommasandra,"Electronic City, Bangalore, Bangalore",,12.80778408,77.67578125,Housing Society,0,0
45381,3 BHK Villa,,https://housing.com/in/buy/resale/page/3887886-3-bhk-villa-in-bommasandra-for-rs-8700000,"Bommasandra, Bangalore",,12.807942,77.683678,Housing Society,0,0
45503,2 BHK Apartment,,https://housing.com/in/buy/resale/page/5077519-2-bhk-apartment-in-bommasandra-for-rs-3294892,"Bommasandra, Bangalore",,12.807942,77.683678,Housing Society,0,0
45592,5 BHK Independent House,,https://housing.com/in/buy/resale/page/4388794-5-bhk-independent-house-in-bommasandra-for-rs-14500000,"Bommasandra, Bangalore",,12.807942,77.683678,Housing Society,0,0
45756,Residential Plot,,https://housing.com/in/buy/resale/page/4685079-residential-plot-in-bommasandra-for-rs-3720000,"Shri Sai City, Bommasandra, Bangalore",,12.807942,77.683678,Housing Society,0,0
47660,Gokul Kuteer,,https://housing.com/in/buy/projects/page/70792-gokul-kuteer-by-swaraj-homes-builders-developer-in-yarandahalli,"Yarandahalli, Bangalore South, Bangalore",,12.80824375,77.67195892,Housing Society,0,0
47690,Aaradhana Aranya Residency,,https://housing.com/in/buy/projects/page/3960-aaradhana-aranya-residency-by-aaradhana-buildcon-emprises-in-bommasandra,"Bomasandra, Electronic City, Bangalore., Bangalore",,12.80851555,77.67021942,Housing Society,0,0
30075,Five Star Chicken,,,"Shop No 4, Ground Floor, Bannerghatta Jigani,Dasarahalli Main Rd,near Venkateswara Dental College,Bengaluru, Karnataka 560083",,12.8087432,77.5899406,Restaurant,0,0
45621,Southern Springs,,https://housing.com/in/buy/projects/page/222246-southern-springs-by-southern-heritage-in-electronic-city,"HosurRoad, Near Bommasandra, Bangalore, Electronic City",,12.80883,77.683289,Housing Society,0,0
47698,Ideal Ideal Hitech,,https://housing.com/in/buy/projects/page/219454-ideal-ideal-hitech-by-the-ideal-homes-in-bommasandra,"Hosur, Banglore, Bangalore",,12.80890274,77.67233276,Housing Society,0,0
45965,Ram Sai Residency,,https://housing.com/in/buy/projects/page/45100-ram-sai-residency-by-sai-ram-builders-in-electronic-city,"Bommasandra, Bangalore, Bangalore",,12.809222,77.678833,Housing Society,0,0
47650,RK RK Township Apartment,,https://housing.com/in/buy/projects/page/209605-rk-rk-township-apartment-by-rk-developers-in-bommasandra,"Yarandanahalli, Bommasandra, Bangalore, Bangalore",,12.80924511,77.66925049,Housing Society,0,0
47701,2 BHK Villa,,https://housing.com/in/buy/resale/page/5220206-2-bhk-villa-in-bommasandra-for-rs-5000000,"Oraiyan smart city, Bommasandra Village, Bommasandra, Bangalore",,12.809516,77.702597,Housing Society,0,0
47643,2 BHK Independent House,,https://housing.com/in/buy/resale/page/4919732-2-bhk-independent-house-in-bommasandra-for-rs-9900000,"Bommasandra Village, Bommasandra, Bangalore",,12.809876,77.703338,Housing Society,0,0
45768,1 BHK Independent Floor,,https://housing.com/in/buy/resale/page/3505971-1-bhk-independent-floor-in-bommasandra-for-rs-59000000,"Bommasandra, Bangalore",,12.809932,77.679444,Housing Society,0,0
47700,Anugraha Apartment,,https://housing.com/in/buy/projects/page/145127-anugraha-apartment-by-reputed-builder-in-bommasandra,"r k township road, Near Park 7, Yarandahalli, Bangalore",,12.809947,77.676073,Housing Society,0,0
47693,Residential Plot,,https://housing.com/in/buy/resale/page/5211372-residential-plot-in-bommasandra-for-rs-3500000,"Bommasandra Industrial Area, Bommasandra, Bangalore",,12.810059,77.664142,Housing Society,0,0
45757,Sri Shiva Shakti Complex,,https://housing.com/in/buy/projects/page/69118-sri-shiva-shakti-complex-by-swaraj-homes-builders-developer-in-bommasandra,"Bommasandra, Bangalore South, Bangalore",,12.81015301,77.69084167,Housing Society,0,0
3316,Canara Bank ATM,,,"K R BUIDIBG NO 49/1,opp BAJAJ MOTORS,Bannerughatta,Bengaluru, Karnataka 560083",,12.8103469,77.5813634,ATM,0,0
45535,Serinity Apartment,,https://housing.com/in/buy/projects/page/91140-serinity-apartment-by-swaraj-homes-builders-developer-in-bommasandra,"Bommasandra, Bangalore South, Bangalore",,12.81048775,77.68462372,Housing Society,0,0
47662,5 BHK Independent House,,https://housing.com/in/buy/resale/page/2667001-5-bhk-independent-house-in-bommasandra-for-rs-13500000,"Bommasandra Industrial Area, Bommasandra, Bangalore",,12.810498,77.6662,Housing Society,0,0
47673,Dreamciti Aranya Residency,,https://housing.com/in/buy/projects/page/221229-dreamciti-aranya-residency-by-dreamciti-realty-pvt-ltd-in-bommasandra,"Bannerghatta Road ,Bangalore, Bangalore",,12.81085968,77.66898346,Housing Society,0,0
47692,Lasya Vikas Nagar,,https://housing.com/in/buy/projects/page/222151-lasya-vikas-nagar-by-lasya-developers-in-bommasandra,"Jayanagar,Hosur Road,Bangalore, Bangalore",,12.81184292,77.67071533,Housing Society,0,0
47619,Residential Plot,,https://housing.com/in/buy/resale/page/5032317-residential-plot-in-bommasandra-for-rs-5000000,"City Homes, Vabasandra, Bommasandra, Bangalore",,12.812408,77.658127,Housing Society,0,0
47639,City Homes,,https://housing.com/in/buy/projects/page/113362-city-homes-by-r-subramanyeswara-rao-in-bommasandra,"Near Electronics City, Bangalore, Bangalore",,12.81240845,77.65812683,Housing Society,0,0
47602,2 BHK Villa,,https://housing.com/in/buy/resale/page/3966958-2-bhk-villa-in-bommasandra-for-rs-3835000,"25 Jewels, Bommasandra Industrial Area, Bommasandra, Bangalore",,12.812578,77.666766,Housing Society,0,0
8156,Loreal Beauty Salon,,,"Kaggalipura, Karnataka 560082",,12.8126137,77.5108516,Salon,0,0
17952,The Arcade At Brigade Meadows,,,"No 122 Kanakapura Rd Opp Anjanya Temple Udayapura Post Saalu Hunase Village 08123001133,Kaggalipura, Karnataka 560082",,12.8129554,77.510752,Mall,0,0
45501,Residential Plot,,https://housing.com/in/buy/resale/page/5164632-residential-plot-in-bommasandra-for-rs-3300000,"ORAIYAN SMART city , Bommasandra Industrial Area, Bommasandra, Bangalore",,12.812999,77.69092,Housing Society,0,0
45536,2 BHK Apartment,,https://housing.com/in/buy/resale/page/5098124-2-bhk-apartment-in-bommasandra-for-rs-3700000,"KB Residency, Bommasandra Industrial Area, Bommasandra, Bangalore",,12.813059,77.690262,Housing Society,0,0
3181,Idbi ATM,,,"Bannerghatta Rd,Bannerghatta, Karnataka 560083",,12.813208,77.581548,ATM,0,0
3256,Canara Bank ATM,,,"NO 92/3B, ANEKAL BANGALORE,Main Rd,Bannerughatta,Bengaluru, Karnataka 560026",,12.8132225,77.5813036,ATM,0,0
47679,2 BHK Independent House,,https://housing.com/in/buy/resale/page/4692442-2-bhk-independent-house-in-bommasandra-for-rs-7500000,"Bommasandra Village, Bommasandra, Bangalore",,12.813232,77.697868,Housing Society,0,0
47607,Alps Aurora,,https://housing.com/in/buy/projects/page/20893-alps-aurora-by-alps-developers-in-bommasandra,"Bommasandra, Bangalore, Bangalore",,12.8132658,77.66816711,Housing Society,0,0
20791,Karnataka Tour Travels,,,"Bannerghatta Main Rd,Bannerughatta,Bengaluru, Karnataka 560083",,12.8135208,77.5804784,Mall,0,0
15741,Annapoorne Shwarei Provision Store,,,"Jairam Layout,Laxmipura, Karnataka 560083",,12.8135494,77.5888814,Grocery,0,0
3913,Canara Bank ATM,,,"SHOP NO 1, NEAR SRI CHAMPAKADHAMA SWAMY TEMPLE MAIN TEMPLE ROAD, BANNERGHATTA BANGALORE 560083,Bengaluru, Karnataka 560010",,12.8136454,77.5795555,ATM,0,0
45417,2 BHK Villa,,https://housing.com/in/buy/resale/page/2677314-2-bhk-villa-in-bommasandra-for-rs-4256000,"green pearls, Bommasandra Industrial Area, Bommasandra, Bangalore",,12.813652,77.682627,Housing Society,0,0
45576,2 BHK Independent House,,https://housing.com/in/buy/resale/page/2552603-2-bhk-independent-house-in-bommasandra-for-rs-2150000,"Bommasandra Industrial Area, Bommasandra, Bangalore",,12.813774,77.678609,Housing Society,0,0
45685,2 BHK Apartment,,https://housing.com/in/buy/resale/page/5195555-2-bhk-apartment-in-bommasandra-industrial-area-for-rs-3700000,"K B Residency, Bommasandra Industrial Area, Bommasandra, Bangalore",,12.813774,77.679124,Housing Society,0,0
47636,Mdvr SV Shelters,,https://housing.com/in/buy/projects/page/232119-mdvr-sv-shelters-by-mdvr-projects-pvt-ltd-in-bommasandra,"No.99/1, 100/1 And 100/2, Heelalige, Bommasandra, Bangalore",,12.81390095,77.70808411,Housing Society,0,0
47596,2 BHK Apartment,,https://housing.com/in/buy/resale/page/4852376-2-bhk-apartment-in-bommasandra-for-rs-3808000,"Mdvr SV Shelters, Heelalige, Bommasandra, Bangalore",,12.813901,77.708084,Housing Society,0,0
45559,Dwarakamai Castle,,https://housing.com/in/buy/projects/page/113097-dwarakamai-castle-by-info-in-electronic-city,"KHB Surya City, Near by Chandrapura, Bangalore, Electronic City",,12.813956,77.689804,Housing Society,0,0
47686,Damodara Sreenidhi Serenity,,https://housing.com/in/buy/projects/page/144875-damodara-sreenidhi-serenity-by-damodara-reddy-regalla-in-bommasandra,"Yadavanahalli, Attibele, Boomasandra, Bangalore",,12.81396866,77.69424438,Housing Society,0,0
54009,Mahalakshmi stores,,,"Mahalakshmi stores , Electronic City",,12.8140202,77.6913901,Super Market,0,0
15472,Nyaya Bele Angadi,,,"Bengaluru, Karnataka 560083",,12.8140438,77.5791601,Grocery,0,0
47671,Kataria Royale,,https://housing.com/in/buy/projects/page/2725-kataria-royale-by-kataria-builteck-pvt-ltd-in-bommasandra,"NH 7, Hosur Road, Bangalore, Bangalore",,12.814563,77.702904,Housing Society,0,0
45598,Svamitva Emerald Square,,https://housing.com/in/buy/projects/page/102434-svamitva-emerald-square-by-svamitva-infra-in-electronic-city,"Sy No 102/2, Yarandahalli Village, Jigini Hobli, Anekal Taluk, Bommasandra, Electronic City",,12.814702,77.67012,Housing Society,0,0
45469,2 BHK Villa,,https://housing.com/in/buy/resale/page/2777648-2-bhk-villa-in-bommasandra-for-rs-4022000,"Bommasandra Industrial Area, Bommasandra, Bangalore",,12.814849,77.670952,Housing Society,0,0
45873,2 BHK Independent House,,https://housing.com/in/buy/resale/page/3649541-2-bhk-independent-house-in-bommasandra-for-rs-3990000,"Bommasandra Industrial Area, Bommasandra, Bangalore",,12.814849,77.670952,Housing Society,0,0
45401,Heritage Ornate,,https://housing.com/in/buy/projects/page/172579-heritage-ornate-by-heritage-housing-projects-in-electronic-city,"Bommasandra Jigani Link Road, Near Aravindha Ltd Bus Station, Bommasandra Industrial Area, Electronic City",,12.814949,77.673029,Housing Society,0,0
47621,2 BHK Villa,,https://housing.com/in/buy/resale/page/2535610-2-bhk-villa-in-bommasandra-for-rs-2560000,"Lavalya villa plots, Bommasandra Industrial Area, Bommasandra, Bangalore",,12.815107,77.659973,Housing Society,0,0
45888,Residential Plot,,https://housing.com/in/buy/resale/page/2549099-residential-plot-in-bommasandra-for-rs-2010000,"silicon valley view, Bommasandra Industrial Area, Bommasandra, Bangalore",,12.815122,77.670921,Housing Society,0,0
47661,Dhiraan Newark Farm Springs,,https://housing.com/in/buy/projects/page/69116-dhiraan-newark-farm-springs-by-dhiraan-infrastructure-in-bommasandra,"Bommasandra, Bangalore South, Bangalore",,12.81514359,77.70505524,Housing Society,0,0
47681,2 BHK Villa,,https://housing.com/in/buy/resale/page/3414750-2-bhk-villa-in-bommasandra-for-rs-8500000,"Bommasandra Village, Bommasandra, Bangalore",,12.815462,77.703308,Housing Society,0,0
45549,Gagan Garden Residency,,https://housing.com/in/buy/projects/page/86292-gagan-garden-residency-by-gagan-constructions-in-bommasandra,"RT Nagar, Bangalore, Bangalore",,12.81548405,77.68481445,Housing Society,0,0
3255,Vijaya Bank And ATM,,,"Gollahalli, Karnataka 560083",,12.8156228,77.582933,ATM,0,0
45842,Manasa Sri Sai Homes,,https://housing.com/in/buy/projects/page/205731-manasa-sri-sai-homes-by-manasa-developers-in-electronic-city,"Bommasandra, Bangalore South, Electronic City",,12.815677,77.673805,Housing Society,0,0
3093,Federal Bank ATM,,,"SH 87,Bengaluru, Karnataka 560083",,12.8158559,77.5833973,ATM,0,0
45586,Niranjan Sunbeam,,https://housing.com/in/buy/projects/page/47908-niranjan-sunbeam-by-niranjan-developers-in-bommasandra,"Near Color Tech, Bommasandra Jigani Link Road, Hosur Road, Bommasandra Industrial Area",,12.816079,77.672873,Housing Society,0,0
45415,Residential Plot,,https://housing.com/in/buy/resale/page/2482937-residential-plot-in-bommasandra-for-rs-1990500,"Bommasandra Industrial Area, Bommasandra, Bangalore",,12.816117,77.681358,Housing Society,0,0
47620,4 BHK Independent House,,https://housing.com/in/buy/resale/page/3694371-4-bhk-independent-house-in-bommasandra-for-rs-8100000,"Heelalige, Bommasandra, Bangalore",,12.816512,77.707683,Housing Society,0,0
45442,Residential Plot,,https://housing.com/in/buy/resale/page/4561001-residential-plot-in-electronic-city-for-rs-9600000,"Bommasandra Village, Bommasandra, Bangalore",,12.81673,77.697437,Housing Society,0,0
46020,3 BHK Villa,,https://housing.com/in/buy/resale/page/4048842-3-bhk-villa-in-bommasandra-for-rs-8500000,"Bommasandra Village, Bommasandra, Bangalore",,12.81673,77.697437,Housing Society,0,0
47600,3 BHK Apartment,,https://housing.com/in/buy/resale/page/2035556-3-bhk-apartment-in-bommasandra-for-rs-5100000,"Shri Shabari Infrasructure, Bommasandra Village, Bommasandra, Bangalore",,12.816847,77.698949,Housing Society,0,0
45804,Sri Charkra Blossom,,https://housing.com/in/buy/projects/page/171730-sri-charkra-blossom-by-sri-chakra-construction-in-electronic-city,"SY NO.85/2, MARGONDANAHALLI,, JIGANI HOBLI, ANEKAL TALUK, Electronic City",,12.816966,77.682114,Housing Society,0,0
45687,RK RK City,,https://housing.com/in/buy/projects/page/220539-rk-rk-city-by-rk-developers-in-electronic-city,"Bommasandra, Bangalore, Electronic City",,12.816969,77.682945,Housing Society,0,0
45907,SRK Samrudhi Suits,,https://housing.com/in/buy/projects/page/222092-srk-samrudhi-suits-by-srk-group-in-electronic-city,"Hosur Road, Electronic City Phase I, Bangalore, Electronic City",,12.81699,77.674278,Housing Society,0,0
47609,Residential Plot,,https://housing.com/in/buy/resale/page/4777404-residential-plot-in-bommasandra-for-rs-3800000,"Kirshna reddy layout, Heelalige, Bommasandra, Bangalore",,12.817576,77.707972,Housing Society,0,0
45949,i1 Sri Ram Vrindavan,,https://housing.com/in/buy/projects/page/74968-i1-sri-ram-vrindavan-by-i1-properties-in-electronic-city,"Electronic City Phase II, Bangalore, Bommasandra",,12.81801,77.682938,Housing Society,0,0
47635,Daiwik Spandana,,https://housing.com/in/buy/projects/page/101563-daiwik-spandana-by-daiwik-housing-pvt-ltd-in-bommasandra,"Sy No 2/1 Heelalige Village Chandapura Town Munipality, Anekal, Electronic City Phase 2, Bangalore",,12.81845093,77.7095108,Housing Society,0,0
47658,4 BHK Villa,,https://housing.com/in/buy/resale/page/2930894-4-bhk-villa-in-bommasandra-for-rs-15000000,"Daiwik Spandana, Heelalige, Bommasandra, Bangalore",,12.818451,77.709511,Housing Society,0,0
47642,Urban Retreat,,https://housing.com/in/buy/projects/page/157812-urban-retreat-by-reputed-builder-in-bommasandra,"Helallige village Main Road, Government School, Chandapura, Bangalore",,12.818478,77.71105,Housing Society,0,0
45529,3 BHK Apartment,,https://housing.com/in/buy/resale/page/4777902-3-bhk-apartment-in-bommasandra-for-rs-4366000,"DS Max Sky Classic, Bommasandra Industrial Area, Bommasandra, Bangalore",,12.818525,77.671043,Housing Society,0,0
45758,DS Max Skyclassic,,https://housing.com/in/buy/projects/page/45051-ds-max-skyclassic-by-dsmax-properties-in-electronic-city,"Near SKF Factory, Electronic City, Bangalore, Electronic City",,12.818525,77.671043,Housing Society,0,0
45628,2 BHK Apartment,,https://housing.com/in/buy/resale/page/2003303-2-bhk-apartment-in-electronic-city-for-rs-4100000,"Bommasandra Industrial Area, Bommasandra, Bangalore",,12.818807,77.692672,Housing Society,0,0
45997,Kritan Asta,,https://housing.com/in/buy/projects/page/31941-kritan-asta-by-kritan-urbane-living-in-bommasandra,"Electronic City, Bangalore, Bangalore",,12.81885242,77.66316223,Housing Society,0,0
28037,Mtr,,,"Samvit,Kanakapura Rd,next to Art of Living Ashram,Bengaluru, Karnataka 560082",,12.8191488,77.5138583,Restaurant,0,0
45465,2 BHK Villa,,https://housing.com/in/buy/resale/page/2851164-2-bhk-villa-in-electronic-city-for-rs-1980000,"Akshya greens , Bommasandra Industrial Area, Bommasandra, Bangalore",,12.819441,77.672444,Housing Society,0,0
45900,Magnum YR Enclave,,https://housing.com/in/buy/projects/page/66594-magnum-yr-enclave-by-magnum-developers-in-bommasandra,"Electronic city,Bangalore., Bangalore",,12.81999969,77.66999817,Housing Society,0,0
45597,DSMAX SILVER WOOD,,https://housing.com/in/buy/projects/page/45050-dsmax-silver-wood-by-dsmax-properties-in-bommasandra,"Huskur Gate, Thali Restaurant, Bommasandra, Electronic City",,12.820243,77.695717,Housing Society,0,0
45517,3 BHK Apartment,,https://housing.com/in/buy/resale/page/4707062-3-bhk-apartment-in-bommasandra-for-rs-4500000,"Bommasandra Industrial Area, Bommasandra, Bangalore",,12.820298,77.676377,Housing Society,0,0
45526,Residential Plot,,https://housing.com/in/buy/resale/page/4839194-residential-plot-in-bommasandra-for-rs-4500000,"Bommasandra Industrial Area, Bommasandra, Bangalore",,12.820298,77.676377,Housing Society,0,0
45607,2 BHK Independent Floor,,https://housing.com/in/buy/resale/page/3969892-2-bhk-independent-floor-in-bommasandra-for-rs-3500000,"Bommasandra Industrial Area, Bommasandra, Bangalore",,12.820298,77.676377,Housing Society,0,0
45392,2 BHK Apartment,,https://housing.com/in/buy/resale/page/2792235-2-bhk-apartment-in-bommasandra-for-rs-3800000,"Bommasandra Industrial Area, Bommasandra, Bangalore",,12.820469,77.685304,Housing Society,0,0
45414,Stanford Omkar Homes,,https://housing.com/in/buy/projects/page/154697-stanford-omkar-homes-by-reputed-builder-in-rs-gardens,"Heelalige Road, Near INCH FACTORY, Bommasandra Industrial Area, Bangalore",,12.820526,77.692899,Housing Society,0,0
45434,2 BHK Apartment,,https://housing.com/in/buy/resale/page/5198850-2-bhk-apartment-in-bommasandra-for-rs-5500000,"GM Infinite E-City Town, Bommasandra, Bangalore",,12.820597,77.663704,Housing Society,0,0
45491,GM Infinite E-City Town,,https://housing.com/in/buy/projects/page/25947-gm-infinite-ecity-town-by-gm-infinite-in-thirupalya,"Near TNR Inizio, Neotown Road, Electronic City Phase-1, Bangalore",,12.820597,77.663704,Housing Society,0,0
45564,2 BHK Villa,,https://housing.com/in/buy/resale/page/4151600-2-bhk-villa-in-electronic-city-for-rs-2769499,"GREEN NEST LAKE VIEW, Madagondanahalli, Bommasandra, Bangalore",,12.820637,77.655429,Housing Society,0,0
45476,Cosmos Mayflower Gardenia,,https://housing.com/in/buy/projects/page/37721-cosmos-mayflower-gardenia-by-cosmos-group-in-bommasandra,"Hullimangala Road, Near Williams refrigerations, Bangalore",,12.820637,77.670946,Housing Society,0,0
45937,Accent Shiva Sai Apartment,,https://housing.com/in/buy/projects/page/220201-accent-shiva-sai-apartment-by-accent-in-electronic-city,"Electronics City, Near Hebbagodi Village, Attibele Hobli, Anekal Taluk, Bangalore, Electronic City",,12.820908,77.686134,Housing Society,0,0
45885,Siri Symphony,,https://housing.com/in/buy/projects/page/243221-siri-symphony-by-siri-housing-in-thirupalya,"Electronic City, Bangalore, Bangalore",,12.82094193,77.66120911,Housing Society,0,0
45471,2 BHK Independent House,,https://housing.com/in/buy/resale/page/2552478-2-bhk-independent-house-in-electronic-city-for-rs-2750000,"GES Parkview , Madagondanahalli, Bommasandra, Bangalore",,12.821115,77.656651,Housing Society,0,0
45389,1 BHK Apartment,,https://housing.com/in/buy/resale/page/4341434-1-bhk-apartment-in-bommasandra-for-rs-3700000,"Madagondanahalli, Bommasandra, Bangalore",,12.821116,77.655952,Housing Society,0,0
45539,Keya The Green Terraces,,https://housing.com/in/buy/projects/page/39107-keya-the-green-terraces-by-keya-homes-in-electronic-city,"The Green Terraces Electronic City Phase 1, Neotown, Electronic City",,12.821116,77.655952,Housing Society,0,0
45846,Patel Smondo 3,,https://housing.com/in/buy/projects/page/108761-patel-smondo-3-by-patel-realty-india-in-bommasandra,"Electronics City, Bangalore",,12.82117844,77.6598587,Housing Society,0,0
54019,Pari Fresh Green Terrace,,,"Pari Fresh Green Terrace , Electronic City",,12.8211972,77.6560271,Super Market,0,0
54014,Royal Villas supermarket,,,"Royal Villas supermarket , Electronic City",,12.8212285,77.6578004,Super Market,0,0
26469,Apollo Pharmacy,,,"K No 1161/21, Shop No 21, Ground Flr Jigani Hobli, Ph,1st St,Electronic City,Bengaluru, Karnataka 560100",,12.8212769,77.6556141,Pharmacy,0,0
45899,Patel Smondoville,,https://housing.com/in/buy/projects/page/67990-patel-smondoville-by-patel-realty-india-in-bommasandra,"Electronic City, Bangalore., Bangalore",,12.8213129,77.6577301,Housing Society,0,0
1469,"NOVEL FRESH,",,,"NOVEL FRESH, BANGALORE",,12.8213978,77.6601407,Super Market,0,0
54011,Novel Fresh,,,"Novel Fresh , Electronic City",,12.8213978,77.6601407,Super Market,0,0
45568,2 BHK Villa,,https://housing.com/in/buy/resale/page/2508552-2-bhk-villa-in-bommasandra-for-rs-1890000,"aadya villa plots, Bommasandra, Bangalore",,12.821802,77.66169,Housing Society,0,0
45797,Somdo Ville,,https://housing.com/in/buy/projects/page/77414-somdo-ville-by-swaraj-homes-builders-developer-in-bommasandra,"Electronics City Phase 1, Bangalore",,12.82199192,77.65779114,Housing Society,0,0
41424,Grocery Store,,,"Unnamed Road,Bengaluru, Karnataka 560083",,12.8220903,77.5584865,Super Market,0,0
21742,Neo Mall Bus Stop,,,"Unnamed Road,Maragondanahalli,Bommasandra, Karnataka 560099",,12.8221765,77.6603126,Mall,0,0
45895,GM Elegance Tower,,https://housing.com/in/buy/projects/page/41568-gm-elegance-tower-by-gm-infinite-in-bommasandra,"Electronic City Phase 1, Thirupalya Village, Jigani Hobli, Anekal Taulk, Bangalore, Bangalore",,12.82225323,77.65711975,Housing Society,0,0
1544,"SRI MATHAJI ELECTRICALS,",,,"SRI MATHAJI ELECTRICALS, BANGALORE",,12.8223504,77.6863411,Super Market,0,0
45640,RS Royal Gardeenia,,https://housing.com/in/buy/projects/page/92944-rs-royal-gardeenia-by-r-s-developers-in-rs-gardens,"Electronics City Phase 2, Bangalore, Bangalore",,12.8229351,77.68582916,Housing Society,0,0
45700,2 BHK Independent House,,https://housing.com/in/buy/resale/page/2540307-2-bhk-independent-house-in-electronic-city-for-rs-1940000,"green county plots, Bommasandra, Bangalore",,12.823124,77.670384,Housing Society,0,0
45659,Residential Plot,,https://housing.com/in/buy/resale/page/5077128-residential-plot-in-electronic-city-for-rs-4920000,"Green nest layout, Bommasandra, Bangalore",,12.823517,77.668185,Housing Society,0,0
45860,Creative Green Wood Empire,,https://housing.com/in/buy/projects/page/2247-creative-green-wood-empire-by-creative-infrastructure-in-hebbagodi,"Jigani, Bangalore, Bangalore",,12.8236599,77.68013763,Housing Society,0,0
46011,Sangani Sangani Green Wood Empire Villas,,https://housing.com/in/buy/projects/page/62056-sangani-sangani-green-wood-empire-villas-by-sangani-infrastructure-pvt-ltd-in-jigani,"Jigani, Bangalore South, Bangalore",,12.8236599,77.68013763,Housing Society,0,0
45809,GM Global Techies Town,,https://housing.com/in/buy/projects/page/40850-gm-global-techies-town-by-gm-infinite-in-bommasandra,"Near Neo Mall, Bangalore",,12.82384872,77.66120148,Housing Society,0,0
45697,Residential Plot,,https://housing.com/in/buy/resale/page/4971433-residential-plot-in-electronic-city-for-rs-3858000,"Aishwarya green nest properties Pvt ltd, Madagondanahalli, Bommasandra, Bangalore",,12.824132,77.660641,Housing Society,0,0
45486,2 BHK Independent House,,https://housing.com/in/buy/resale/page/4797666-2-bhk-independent-house-in-vidyanagar-for-rs-5500000,"Ambika North Street, Bommasandra, Bangalore",,12.824309,77.684227,Housing Society,0,0
45990,Daadys Garden,,https://housing.com/in/buy/projects/page/209758-daadys-garden-by-daadys-builders-in-electronic-city,"Electronics City Phase 2, Bangalore, Electronic City",,12.82434,77.691292,Housing Society,0,0
45735,RS RS Greenwoods,,https://housing.com/in/buy/projects/page/69114-rs-rs-greenwoods-by-rs-developers-in-bommasandra,"Bommasandra, Bangalore South, Bangalore",,12.82436752,77.68729401,Housing Society,0,0
45408,Residential Plot,,https://housing.com/in/buy/resale/page/4814335-residential-plot-in-vidyanagar-for-rs-2800000,"Ambika North Street, Bommasandra, Bangalore",,12.824376,77.684124,Housing Society,0,0
45782,2 BHK Villa,,https://housing.com/in/buy/resale/page/4059273-2-bhk-villa-in-electronic-city-for-rs-8532400,"Bommasandra, Bangalore",,12.824463,77.676564,Housing Society,0,0
46003,Swamiraj,,https://housing.com/in/buy/projects/page/69117-swamiraj-by-swaraj-homes-builders-developer-in-bommasandra,"Bommasandra, Bangalore South, Bangalore",,12.82446384,77.68640137,Housing Society,0,0
45935,Abode Breeze,,https://housing.com/in/buy/projects/page/5214-abode-breeze-by-abode-creation-in-electronic-city,"Survey No.73, 2nd main, Daddys South Bourg, Kamasandra Village, Hebagodi, Hosur Road, Bangalore",,12.825,77.691109,Housing Society,0,0
47652,Mayur Brundavan,,https://housing.com/in/buy/projects/page/132914-mayur-brundavan-by-reputed-builder-in-bommasandra,"Hilalige Road, Near Gold Coins Club, Electronic City, Bangalore",,12.825024,77.7075,Housing Society,0,0
1519,"PRATAP INDUSTRIAL SUPPLIERS, B",,,"PRATAP INDUSTRIAL SUPPLIERS, B BANGALORE",,12.8250926,77.6850383,Super Market,0,0
45618,2 BHK Villa,,https://housing.com/in/buy/resale/page/2809841-2-bhk-villa-in-electronic-city-for-rs-3890000,"Green quitland , Bommasandra, Bangalore",,12.825132,77.66695,Housing Society,0,0
45744,Infrany Trinity,,https://housing.com/in/buy/projects/page/35823-infrany-trinity-by-infrany-ventures-in-bommasandra,"Near Centre for Human Genetics, Electronic City Phase 1, Bangalore, Bangalore",,12.8251543,77.6619873,Housing Society,0,0
47654,The Venetian Brundavan,,https://housing.com/in/buy/projects/page/30041-the-venetian-brundavan-by-the-venetian-group-in-bommasandra,"Singena Agrahara, Anant Nagar, Gold Coins Club, Bangalore",,12.825231,77.711353,Housing Society,0,0
45970,Nagalaya Apartment,,https://housing.com/in/buy/projects/page/66636-nagalaya-apartment-by-swaraj-homes-builders-developer-in-electronic-city,"Hebbagodi, Bangalore South, Bangalore",,12.82540131,77.6789093,Housing Society,0,0
42317,Udaan Com,,,"POST,CK Palya,Sakalavara, Karnataka 560083",,12.8255255,77.59743,Super Market,0,0
45630,KB Villas,,https://housing.com/in/buy/projects/page/167165-kb-villas-by-reputed-builder-in-rs-gardens,"Thadicombu Road, Near Anjaneya Homeo Care, Electronic City, Bangalore",,12.825567,77.685218,Housing Society,0,0
45663,RK KB Vilas Appartments,,https://housing.com/in/buy/projects/page/220526-rk-kb-vilas-appartments-by-rk-developers-in-rs-gardens,"Electronic City Phase 2, Bangalore, Bangalore",,12.82556915,77.68522644,Housing Society,0,0
45783,Alliance Gardens Villas,,https://housing.com/in/buy/projects/page/205739-alliance-gardens-villas-by-alliance-group-mumbai-in-rs-gardens,"Electronic City, Bangalore South, Bangalore",,12.82559204,77.6852417,Housing Society,0,0
27387,Sri Sri Tattva Panchamrut,,,"Inside Sri Sri Tattva Panchakarma facility Just off pipeline road The Art of Living International Ashram 21st Km,off, Kanakapura Rd,Udayapura,Bengaluru, Karnataka 560082",,12.8256965,77.5062868,Restaurant,0,0
5404,South Indian Bank ATM,,,"Harapanahalli Begur Road,Bengaluru, Karnataka 560083",,12.8256993,77.6228764,ATM,0,0
45509,2 BHK Independent House,,https://housing.com/in/buy/resale/page/2535231-2-bhk-independent-house-in-electronic-city-for-rs-2350000,"Lavalya villa plots , Madagondanahalli, Bommasandra, Bangalore",,12.825802,77.661457,Housing Society,0,0
47628,Vs Nilaya,,https://housing.com/in/buy/projects/page/66635-vs-nilaya-by-swaraj-homes-builders-developer-in-electronic-city,"Hebbagodi, Bangalore South, Bommasandra",,12.826007,77.677063,Housing Society,0,0
45908,Metropolis Swastik,,https://housing.com/in/buy/projects/page/138299-metropolis-swastik-by-reputed-builder-in-hebbagodi,"Bhavani Road, Near Srinivasa Chetramandira Movie Theater, Electronic City, Bangalore",,12.826422,77.675443,Housing Society,0,0
45447,3 BHK Apartment,,https://housing.com/in/buy/resale/page/4721480-3-bhk-apartment-in-electronic-city-for-rs-8000000,"Bommasandra, Bangalore",,12.82644,77.678894,Housing Society,0,0
24295,Fast Pharmacy On Line Bangalore,,,"F 031, PLATINUM LIFESTYLE APARTMENT,80 Feet Road,near Mega Express Mart, 8th Phase,Bengaluru, Karnataka 560083",,12.82667,77.554933,Pharmacy,0,0
31796,L R Hotel,,,"Near Amc College, BG Road Kalkere,Bannerughatta,Bengaluru, Karnataka 560083",,12.8267216,77.5867313,Restaurant,0,0
41485,Slv Provision Store,,,"Bengaluru, Karnataka 560083",,12.8267768,77.5608098,Super Market,0,0
45835,Daadys String,,https://housing.com/in/buy/projects/page/99751-daadys-string-by-daadys-builders-in-daadys-gaarden-layout,"Electronic City Phase 2, Bangalore",,12.82678413,77.68943024,Housing Society,0,0
10157,Angana,,,"SBM Colony, Banashankari Stage I, Banashankari,Bengaluru, Karnataka 560083",,12.826935,77.581765,Salon,0,0
45921,JMR Lotus,,https://housing.com/in/buy/projects/page/232551-jmr-lotus-by-jmr-developers-in-hebbagodi,"Gollalli Main Road,Near Electronic City, Survey No.12/24&25,Hebbagudi Village, Bangalore",,12.82696533,77.68077087,Housing Society,0,0